{"type":"FeatureCollection","features":[{"type":"Feature","geometry":{"type":"Point","coordinates":[77.6200545,12.9871731]},"properties":{"species":"Alstonia Macrophylla Wall. Ex Dc.","ward":"90","tree_id":"GN8035OB2QVK001"}},{"type":"Feature","geometry":{"type":"Point","coordinates":[77.6202735,12.9872371]},"properties":{"species":"Pongamia Pinnata (L.) Pierre","ward":"90","tree_id":"GN8035OB2WHG001"}},{"type":"Feature","geometry":{"type":"Point","coordinates":[77.6203995,12.9873181]},"properties":{"species":"Tabebuia Rosea (Bertol) Dc.","ward":"90","tree_id":"GN8035OB2XPL001"}},{"type":"Feature","geometry":{"type":"Point","coordinates":[77.6205255,12.9873441]},"properties":{"species":"Millingtonia Hortensis L.F","ward":"90","tree_id":"GN8035OB2XYF001"}},{"type":"Feature","geometry":{"type":"Point","coordinates":[77.6206085,12.9873211]},"properties":{"species":"Millingtonia Hortensis L.F","ward":"90","tree_id":"GN8035OB2YQO001"}},{"type":"Feature","geometry":{"type":"Point","coordinates":[77.6206115,12.9873761]},"properties":{"species":"Saraca Asoca (Roxb.) De Wilde","ward":"90","tree_id":"GN8035OC2EBG001"}},{"type":"Feature","geometry":{"type":"Point","coordinates":[77.6206675,12.9873401]},"properties":{"species":"Samanea Saman (Jacq.) Merr.","ward":"90","tree_id":"GN8035OB2YXE001"}},{"type":"Feature","geometry":{"type":"Point","coordinates":[77.6208155,12.9873551]},"properties":{"species":"Markhamia Lutea (Benth.) K.Schum","ward":"90","tree_id":"GN8035OB3UWM001"}},{"type":"Feature","geometry":{"type":"Point","coordinates":[77.6209635,12.9873841]},"properties":{"species":"Samanea Saman (Jacq.) Merr.","ward":"90","tree_id":"GN8035OC3BBI001"}},{"type":"Feature","geometry":{"type":"Point","coordinates":[77.6209855,12.9874041]},"properties":{"species":"Samanea Saman (Jacq.) Merr.","ward":"90","tree_id":"GN8035OC3BGH001"}},{"type":"Feature","geometry":{"type":"Point","coordinates":[77.6213095,12.9874521]},"properties":{"species":"Delonix Regia (Bojer Ex Hook.) Raf.","ward":"90","tree_id":"GN8035OC3DKK001"}},{"type":"Feature","geometry":{"type":"Point","coordinates":[77.6214435,12.9874391]},"properties":{"species":"Delonix Regia (Bojer Ex Hook.) Raf.","ward":"90","tree_id":"GN8035OC3DOF001"}},{"type":"Feature","geometry":{"type":"Point","coordinates":[77.6214725,12.9874471]},"properties":{"species":"Swietenia Mahagoni (L.) Jacq.","ward":"90","tree_id":"GN8035OC3EKI001"}},{"type":"Feature","geometry":{"type":"Point","coordinates":[77.6225185,12.9872671]},"properties":{"species":"Millingtonia Hortensis L.F","ward":"90","tree_id":"GN8035OB4YNN001"}},{"type":"Feature","geometry":{"type":"Point","coordinates":[77.6224515,12.9871701]},"properties":{"species":"Millingtonia Hortensis L.F","ward":"90","tree_id":"GN8035OB4YBC001"}},{"type":"Feature","geometry":{"type":"Point","coordinates":[77.6224255,12.9872321]},"properties":{"species":"Samanea Saman (Jacq.) Merr.","ward":"90","tree_id":"GN8035OB4YFP001"}},{"type":"Feature","geometry":{"type":"Point","coordinates":[77.6224745,12.9871311]},"properties":{"species":"Millingtonia Hortensis L.F","ward":"90","tree_id":"GN8035OB4TWB001"}},{"type":"Feature","geometry":{"type":"Point","coordinates":[77.6224445,12.9870721]},"properties":{"species":"Millingtonia Hortensis L.F","ward":"90","tree_id":"GN8035OB4TLG001"}},{"type":"Feature","geometry":{"type":"Point","coordinates":[77.6224575,12.9870161]},"properties":{"species":"Millingtonia Hortensis L.F","ward":"90","tree_id":"GN8035OB4TBP001"}},{"type":"Feature","geometry":{"type":"Point","coordinates":[77.6224595,12.9869601]},"properties":{"species":"Millingtonia Hortensis L.F","ward":"90","tree_id":"GN8035OB4OVH001"}},{"type":"Feature","geometry":{"type":"Point","coordinates":[77.6224395,12.9869391]},"properties":{"species":"Millingtonia Hortensis L.F","ward":"90","tree_id":"GN8035OB4OQN001"}},{"type":"Feature","geometry":{"type":"Point","coordinates":[77.6224675,12.9869271]},"properties":{"species":"Leucaena Latisiliqua (L.) Gillis","ward":"90","tree_id":"GN8035OB4ORE001"}},{"type":"Feature","geometry":{"type":"Point","coordinates":[77.6224635,12.9869031]},"properties":{"species":"Millingtonia Hortensis L.F","ward":"90","tree_id":"GN8035OB4OMM001"}},{"type":"Feature","geometry":{"type":"Point","coordinates":[77.6224565,12.9868911]},"properties":{"species":"Millingtonia Hortensis L.F","ward":"90","tree_id":"GN8035OB4OLH001"}},{"type":"Feature","geometry":{"type":"Point","coordinates":[77.6224985,12.9868701]},"properties":{"species":"Millingtonia Hortensis L.F","ward":"90","tree_id":"GN8035OB4OIM001"}},{"type":"Feature","geometry":{"type":"Point","coordinates":[77.6224485,12.9868361]},"properties":{"species":"Millingtonia Hortensis L.F","ward":"90","tree_id":"GN8035OB4OBO001"}},{"type":"Feature","geometry":{"type":"Point","coordinates":[77.6224445,12.9868411]},"properties":{"species":"Millingtonia Hortensis L.F","ward":"90","tree_id":"GN8035OB4OGC001"}},{"type":"Feature","geometry":{"type":"Point","coordinates":[77.6225055,12.9867951]},"properties":{"species":"Millingtonia Hortensis L.F","ward":"90","tree_id":"GN8035OB4JXN001"}},{"type":"Feature","geometry":{"type":"Point","coordinates":[77.6224965,12.9868601]},"properties":{"species":"Millingtonia Hortensis L.F","ward":"90","tree_id":"GN8035OB4OHL001"}},{"type":"Feature","geometry":{"type":"Point","coordinates":[77.6224455,12.9867971]},"properties":{"species":"Millingtonia Hortensis L.F","ward":"90","tree_id":"GN8035OB4JVO001"}},{"type":"Feature","geometry":{"type":"Point","coordinates":[77.6224475,12.9869431]},"properties":{"species":"Spathodea Campanulata P. Beauv","ward":"90","tree_id":"GN8035OB4OQO001"}},{"type":"Feature","geometry":{"type":"Point","coordinates":[77.6224405,12.9871751]},"properties":{"species":"Markhamia Lutea (Benth.) K.Schum","ward":"90","tree_id":"GN8035OB4YBF001"}},{"type":"Feature","geometry":{"type":"Point","coordinates":[77.6217545,12.9875151]},"properties":{"species":"Swietenia Mahagoni (L.) Jacq.","ward":"90","tree_id":"GN8035OC4AWK001"}},{"type":"Feature","geometry":{"type":"Point","coordinates":[77.6214355,12.9874521]},"properties":{"species":"Cocos Nucifera L.","ward":"90","tree_id":"GN8035OC3DOI001"}},{"type":"Feature","geometry":{"type":"Point","coordinates":[77.6214725,12.9874541]},"properties":{"species":"Swietenia Mahagoni (L.) Jacq.","ward":"90","tree_id":"GN8035OC3EKM001"}},{"type":"Feature","geometry":{"type":"Point","coordinates":[77.6213925,12.9874411]},"properties":{"species":"Cocos Nucifera L.","ward":"90","tree_id":"GN8035OC3DMH001"}},{"type":"Feature","geometry":{"type":"Point","coordinates":[77.6212215,12.9874391]},"properties":{"species":"Swietenia Mahagoni (L.) Jacq.","ward":"90","tree_id":"GN8035OC3CNE001"}},{"type":"Feature","geometry":{"type":"Point","coordinates":[77.6207005,12.9873651]},"properties":{"species":"Cocos Nucifera L.","ward":"90","tree_id":"GN8035OC2EEA001"}},{"type":"Feature","geometry":{"type":"Point","coordinates":[77.6206515,12.9874001]},"properties":{"species":"Millingtonia Hortensis L.F","ward":"90","tree_id":"GN8035OC2EHD001"}},{"type":"Feature","geometry":{"type":"Point","coordinates":[77.6204725,12.9873031]},"properties":{"species":"Swietenia Mahagoni (L.) Jacq.","ward":"90","tree_id":"GN8035OB2XRH001"}},{"type":"Feature","geometry":{"type":"Point","coordinates":[77.6204145,12.9873161]},"properties":{"species":"Cocos Nucifera L.","ward":"90","tree_id":"GN8035OB2XQJ001"}},{"type":"Feature","geometry":{"type":"Point","coordinates":[77.6203375,12.9872941]},"properties":{"species":"Swietenia Mahagoni (L.) Jacq.","ward":"90","tree_id":"GN8035OB2WTB001"}},{"type":"Feature","geometry":{"type":"Point","coordinates":[77.6202315,12.9872561]},"properties":{"species":"Ficus Religiosa L.","ward":"90","tree_id":"GN8035OB2WGN001"}},{"type":"Feature","geometry":{"type":"Point","coordinates":[77.6195015,12.9869451]},"properties":{"species":"Swietenia Mahagoni (L.) Jacq.","ward":"90","tree_id":"GN8035OB1NQC001"}},{"type":"Feature","geometry":{"type":"Point","coordinates":[77.6194215,12.9869001]},"properties":{"species":"Delonix Regia (Bojer Ex Hook.) Raf.","ward":"90","tree_id":"GN8035OB1MJO001"}},{"type":"Feature","geometry":{"type":"Point","coordinates":[77.6193755,12.9871151]},"properties":{"species":"Samanea Saman (Jacq.) Merr.","ward":"90","tree_id":"GN8035OB1RNM001"}},{"type":"Feature","geometry":{"type":"Point","coordinates":[77.6193975,12.9870071]},"properties":{"species":"Saraca Asoca (Roxb.) De Wilde","ward":"90","tree_id":"GN8035OB1MXP001"}},{"type":"Feature","geometry":{"type":"Point","coordinates":[77.6193555,12.9870701]},"properties":{"species":"Delonix Regia (Bojer Ex Hook.) Raf.","ward":"90","tree_id":"GN8035OB1RHK001"}},{"type":"Feature","geometry":{"type":"Point","coordinates":[77.6194175,12.9869961]},"properties":{"species":"Peltophorum Pterocarpum (Dc.) Back. Ex K. Heyne","ward":"90","tree_id":"GN8035OB1MYJ001"}},{"type":"Feature","geometry":{"type":"Point","coordinates":[77.6193885,12.9870121]},"properties":{"species":"Saraca Asoca (Roxb.) De Wilde","ward":"90","tree_id":"GN8035OB1MXO001"}},{"type":"Feature","geometry":{"type":"Point","coordinates":[77.6196515,12.9869181]},"properties":{"species":"Saraca Asoca (Roxb.) De Wilde","ward":"90","tree_id":"GN8035OB1OKH001"}},{"type":"Feature","geometry":{"type":"Point","coordinates":[77.6196745,12.9869321]},"properties":{"species":"Saraca Asoca (Roxb.) De Wilde","ward":"90","tree_id":"GN8035OB1OLN001"}},{"type":"Feature","geometry":{"type":"Point","coordinates":[77.6197275,12.9870141]},"properties":{"species":"Saraca Asoca (Roxb.) De Wilde","ward":"90","tree_id":"GN8035OB1TCD001"}},{"type":"Feature","geometry":{"type":"Point","coordinates":[77.6197995,12.9870031]},"properties":{"species":"Saraca Asoca (Roxb.) De Wilde","ward":"90","tree_id":"GN8035OB1OYP001"}},{"type":"Feature","geometry":{"type":"Point","coordinates":[77.6197065,12.9870651]},"properties":{"species":"Others","ward":"90","tree_id":"GN8035OB1THI001"}},{"type":"Feature","geometry":{"type":"Point","coordinates":[77.6197645,12.9871491]},"properties":{"species":"Saraca Asoca (Roxb.) De Wilde","ward":"90","tree_id":"GN8035OB1TSP001"}},{"type":"Feature","geometry":{"type":"Point","coordinates":[77.6198025,12.9870841]},"properties":{"species":"Ficus Religiosa L.","ward":"90","tree_id":"GN8035OB1TOD001"}},{"type":"Feature","geometry":{"type":"Point","coordinates":[77.6197375,12.9871001]},"properties":{"species":"Saraca Asoca (Roxb.) De Wilde","ward":"90","tree_id":"GN8035OB1TNI001"}},{"type":"Feature","geometry":{"type":"Point","coordinates":[77.6197915,12.9871801]},"properties":{"species":"Ficus Religiosa L.","ward":"90","tree_id":"GN8035OB1TYJ001"}},{"type":"Feature","geometry":{"type":"Point","coordinates":[77.6198175,12.9871551]},"properties":{"species":"Samanea Saman (Jacq.) Merr.","ward":"90","tree_id":"GN8035OB2PUA001"}},{"type":"Feature","geometry":{"type":"Point","coordinates":[77.6224185,12.9848321]},"properties":{"species":"Ficus Religiosa L.","ward":"90","tree_id":"GN8035JJ4JBF001"}},{"type":"Feature","geometry":{"type":"Point","coordinates":[77.6223845,12.9850111]},"properties":{"species":"Saraca Asoca (Roxb.) De Wilde","ward":"90","tree_id":"GN8035JJ4OAF001"}},{"type":"Feature","geometry":{"type":"Point","coordinates":[77.6223875,12.9851671]},"properties":{"species":"Roystonea Regia (H.B.K) O. F. Cook","ward":"90","tree_id":"GN8035JJ4OUO001"}},{"type":"Feature","geometry":{"type":"Point","coordinates":[77.6224385,12.9851631]},"properties":{"species":"Saraca Asoca (Roxb.) De Wilde","ward":"90","tree_id":"GN8035JJ4OVL001"}},{"type":"Feature","geometry":{"type":"Point","coordinates":[77.6224365,12.9854261]},"properties":{"species":"Saraca Asoca (Roxb.) De Wilde","ward":"90","tree_id":"GN8035JJ4YGP001"}},{"type":"Feature","geometry":{"type":"Point","coordinates":[77.6224265,12.9851981]},"properties":{"species":"Saraca Asoca (Roxb.) De Wilde","ward":"90","tree_id":"GN8035JJ4TBK001"}},{"type":"Feature","geometry":{"type":"Point","coordinates":[77.6223945,12.9852471]},"properties":{"species":"Roystonea Regia (H.B.K) O. F. Cook","ward":"90","tree_id":"GN8035JJ4TFO001"}},{"type":"Feature","geometry":{"type":"Point","coordinates":[77.6224185,12.9852871]},"properties":{"species":"Saraca Asoca (Roxb.) De Wilde","ward":"90","tree_id":"GN8035JJ4TQB001"}},{"type":"Feature","geometry":{"type":"Point","coordinates":[77.6224205,12.9853931]},"properties":{"species":"Roystonea Regia (H.B.K) O. F. Cook","ward":"90","tree_id":"GN8035JJ4YGB001"}},{"type":"Feature","geometry":{"type":"Point","coordinates":[77.6224495,12.9854621]},"properties":{"species":"Saraca Asoca (Roxb.) De Wilde","ward":"90","tree_id":"GN8035JJ4YMM001"}},{"type":"Feature","geometry":{"type":"Point","coordinates":[77.6224405,12.9854791]},"properties":{"species":"Saraca Asoca (Roxb.) De Wilde","ward":"90","tree_id":"GN8035JJ4YQH001"}},{"type":"Feature","geometry":{"type":"Point","coordinates":[77.6223905,12.9853841]},"properties":{"species":"Saraca Asoca (Roxb.) De Wilde","ward":"90","tree_id":"GN8035JJ4YAO001"}},{"type":"Feature","geometry":{"type":"Point","coordinates":[77.6224285,12.9854921]},"properties":{"species":"Saraca Asoca (Roxb.) De Wilde","ward":"90","tree_id":"GN8035JJ4YQO001"}},{"type":"Feature","geometry":{"type":"Point","coordinates":[77.6224275,12.9855101]},"properties":{"species":"Roystonea Regia (H.B.K) O. F. Cook","ward":"90","tree_id":"GN8035JJ4YVG001"}},{"type":"Feature","geometry":{"type":"Point","coordinates":[77.6224515,12.9855811]},"properties":{"species":"Saraca Asoca (Roxb.) De Wilde","ward":"90","tree_id":"GN8035OA4EHA001"}},{"type":"Feature","geometry":{"type":"Point","coordinates":[77.6224225,12.9856471]},"properties":{"species":"Saraca Asoca (Roxb.) De Wilde","ward":"90","tree_id":"GN8035OA4EQB001"}},{"type":"Feature","geometry":{"type":"Point","coordinates":[77.6224015,12.9857141]},"properties":{"species":"Saraca Asoca (Roxb.) De Wilde","ward":"90","tree_id":"GN8035OA4EUO001"}},{"type":"Feature","geometry":{"type":"Point","coordinates":[77.6224085,12.9856881]},"properties":{"species":"Saraca Asoca (Roxb.) De Wilde","ward":"90","tree_id":"GN8035OA4EUD001"}},{"type":"Feature","geometry":{"type":"Point","coordinates":[77.6224425,12.9857291]},"properties":{"species":"Roystonea Regia (H.B.K) O. F. Cook","ward":"90","tree_id":"GN8035OA4JBH001"}},{"type":"Feature","geometry":{"type":"Point","coordinates":[77.6224255,12.9857731]},"properties":{"species":"Saraca Asoca (Roxb.) De Wilde","ward":"90","tree_id":"GN8035OA4JGJ001"}},{"type":"Feature","geometry":{"type":"Point","coordinates":[77.6224335,12.9858071]},"properties":{"species":"Mangifera Indica L.","ward":"90","tree_id":"GN8035OA4JLG001"}},{"type":"Feature","geometry":{"type":"Point","coordinates":[77.6224305,12.9858251]},"properties":{"species":"Saraca Asoca (Roxb.) De Wilde","ward":"90","tree_id":"GN8035OA4JLN001"}},{"type":"Feature","geometry":{"type":"Point","coordinates":[77.6224255,12.9858491]},"properties":{"species":"Roystonea Regia (H.B.K) O. F. Cook","ward":"90","tree_id":"GN8035OA4JQJ001"}},{"type":"Feature","geometry":{"type":"Point","coordinates":[77.6224295,12.9860491]},"properties":{"species":"Saraca Asoca (Roxb.) De Wilde","ward":"90","tree_id":"GN8035OA4OVB001"}},{"type":"Feature","geometry":{"type":"Point","coordinates":[77.6224405,12.9860021]},"properties":{"species":"Roystonea Regia (H.B.K) O. F. Cook","ward":"90","tree_id":"GN8035OA4OLO001"}},{"type":"Feature","geometry":{"type":"Point","coordinates":[77.6224515,12.9860181]},"properties":{"species":"Roystonea Regia (H.B.K) O. F. Cook","ward":"90","tree_id":"GN8035OA4ORE001"}},{"type":"Feature","geometry":{"type":"Point","coordinates":[77.6223735,12.9844481]},"properties":{"species":"Swietenia Mahagoni (L.) Jacq.","ward":"90","tree_id":"GN8035JI4TUN001"}},{"type":"Feature","geometry":{"type":"Point","coordinates":[77.6223995,12.9842711]},"properties":{"species":"Bauhinia Racemosa Lam","ward":"90","tree_id":"GN8035JI4OVM001"}},{"type":"Feature","geometry":{"type":"Point","coordinates":[77.6225645,12.9832941]},"properties":{"species":"Saraca Asoca (Roxb.) De Wilde","ward":"90","tree_id":"GN8035JH5KKP001"}},{"type":"Feature","geometry":{"type":"Point","coordinates":[77.6226735,12.9826931]},"properties":{"species":"Samanea Saman (Jacq.) Merr.","ward":"90","tree_id":"GN8035JG5UIH001"}},{"type":"Feature","geometry":{"type":"Point","coordinates":[77.6192855,12.9869791]},"properties":{"species":"Delonix Regia (Bojer Ex Hook.) Raf.","ward":"90","tree_id":"GN8035OB1MUD001"}},{"type":"Feature","geometry":{"type":"Point","coordinates":[77.6191855,12.9870871]},"properties":{"species":"Thespesia Populnea","ward":"90","tree_id":"GN8035OB1QIM001"}},{"type":"Feature","geometry":{"type":"Point","coordinates":[77.6185445,12.9875441]},"properties":{"species":"Peltophorum Pterocarpum (Dc.) Back. Ex K. Heyne","ward":"90","tree_id":"GN8035OC0DUG001"}},{"type":"Feature","geometry":{"type":"Point","coordinates":[77.6183705,12.9876491]},"properties":{"species":"Syzygium Cumini (L.) Skeels","ward":"90","tree_id":"GN8035OC0HKH001"}},{"type":"Feature","geometry":{"type":"Point","coordinates":[77.6182035,12.9877261]},"properties":{"species":"Tabebuia Rosea (Bertol) Dc.","ward":"90","tree_id":"GN8035OC0GVE001"}},{"type":"Feature","geometry":{"type":"Point","coordinates":[77.6181105,12.9878111]},"properties":{"species":"Tabebuia Rosea (Bertol) Dc.","ward":"90","tree_id":"GN8035OC0KIK001"}},{"type":"Feature","geometry":{"type":"Point","coordinates":[77.6179965,12.9878861]},"properties":{"species":"Delonix Regia (Bojer Ex Hook.) Raf.","ward":"90","tree_id":"GN8035OC0KPO001"}},{"type":"Feature","geometry":{"type":"Point","coordinates":[77.6177395,12.9880691]},"properties":{"species":"Swietenia Mahagoni (L.) Jacq.","ward":"90","tree_id":"GN8035NC9SSO001"}},{"type":"Feature","geometry":{"type":"Point","coordinates":[77.6466606,12.9864182]},"properties":{"species":"Tabebuia Rosea (Bertol) Dc.","ward":"79","tree_id":"GN8535MB1FID001"}},{"type":"Feature","geometry":{"type":"Point","coordinates":[77.6414286,12.9843972]},"properties":{"species":"Markhamia Lutea (Benth.) K.Schum","ward":"79","tree_id":"GN8535GI5WRN001"}},{"type":"Feature","geometry":{"type":"Point","coordinates":[77.6396046,12.9838172]},"properties":{"species":"Swietenia Mahagoni (L.) Jacq.","ward":"79","tree_id":"GN8535GI3HNA001"}},{"type":"Feature","geometry":{"type":"Point","coordinates":[77.6392566,12.9836722]},"properties":{"species":"Peltophorum Pterocarpum (Dc.) Back. Ex K. Heyne","ward":"79","tree_id":"GN8535GI3ASC001"}},{"type":"Feature","geometry":{"type":"Point","coordinates":[77.6391816,12.9836402]},"properties":{"species":"Peltophorum Pterocarpum (Dc.) Back. Ex K. Heyne","ward":"79","tree_id":"GN8535GI3ALC001"}},{"type":"Feature","geometry":{"type":"Point","coordinates":[77.6387686,12.9834532]},"properties":{"species":"Samanea Saman (Jacq.) Merr.","ward":"79","tree_id":"GN8535GH2XFO001"}},{"type":"Feature","geometry":{"type":"Point","coordinates":[77.6387116,12.9834342]},"properties":{"species":"Peltophorum Pterocarpum (Dc.) Back. Ex K. Heyne","ward":"79","tree_id":"GN8535GH2WJE001"}},{"type":"Feature","geometry":{"type":"Point","coordinates":[77.6384936,12.9833382]},"properties":{"species":"Swietenia Mahagoni (L.) Jacq.","ward":"79","tree_id":"GN8535GH2QSI001"}},{"type":"Feature","geometry":{"type":"Point","coordinates":[77.6380566,12.9831752]},"properties":{"species":"Thespesia Populnea","ward":"79","tree_id":"GN8535GH1OVB001"}},{"type":"Feature","geometry":{"type":"Point","coordinates":[77.6380166,12.9831772]},"properties":{"species":"Swietenia Mahagoni (L.) Jacq.","ward":"79","tree_id":"GN8535GH1OUA001"}},{"type":"Feature","geometry":{"type":"Point","coordinates":[77.6379116,12.9831562]},"properties":{"species":"Thespesia Populnea","ward":"79","tree_id":"GN8535GH1NRF001"}},{"type":"Feature","geometry":{"type":"Point","coordinates":[77.6378946,12.9831222]},"properties":{"species":"Swietenia Mahagoni (L.) Jacq.","ward":"79","tree_id":"GN8535GH1NLL001"}},{"type":"Feature","geometry":{"type":"Point","coordinates":[77.6377476,12.9831252]},"properties":{"species":"Swietenia Mahagoni (L.) Jacq.","ward":"79","tree_id":"GN8535GH1MML001"}},{"type":"Feature","geometry":{"type":"Point","coordinates":[77.6375716,12.9830452]},"properties":{"species":"Swietenia Mahagoni (L.) Jacq.","ward":"79","tree_id":"GN8535GH1LDE001"}},{"type":"Feature","geometry":{"type":"Point","coordinates":[77.6376206,12.9830502]},"properties":{"species":"Azadirachta Indica A. Juss.","ward":"79","tree_id":"GN8535GH1LEG001"}},{"type":"Feature","geometry":{"type":"Point","coordinates":[77.6374216,12.9829812]},"properties":{"species":"Azadirachta Indica A. Juss.","ward":"79","tree_id":"GN8535GH1FTE001"}},{"type":"Feature","geometry":{"type":"Point","coordinates":[77.6372646,12.9828712]},"properties":{"species":"Pongamia Pinnata (L.) Pierre","ward":"79","tree_id":"GN8535GH0JEH001"}},{"type":"Feature","geometry":{"type":"Point","coordinates":[77.6348256,12.9825822]},"properties":{"species":"Thespesia Populnea","ward":"79","tree_id":"GN8535FG8VIL001"}},{"type":"Feature","geometry":{"type":"Point","coordinates":[77.6347556,12.9826542]},"properties":{"species":"Thespesia Populnea","ward":"79","tree_id":"GN8535FG8VQL001"}},{"type":"Feature","geometry":{"type":"Point","coordinates":[77.6347646,12.9826402]},"properties":{"species":"Terminalia Catappa L","ward":"79","tree_id":"GN8535FG8VRE001"}},{"type":"Feature","geometry":{"type":"Point","coordinates":[77.6346986,12.9826502]},"properties":{"species":"Thespesia Populnea","ward":"79","tree_id":"GN8535FG8VPJ001"}},{"type":"Feature","geometry":{"type":"Point","coordinates":[77.6194155,12.9873591]},"properties":{"species":"Samanea Saman (Jacq.) Merr.","ward":"79","tree_id":"GN8035OB1WYI001"}},{"type":"Feature","geometry":{"type":"Point","coordinates":[77.6194655,12.9873771]},"properties":{"species":"Samanea Saman (Jacq.) Merr.","ward":"79","tree_id":"GN8035OC1DAC001"}},{"type":"Feature","geometry":{"type":"Point","coordinates":[77.6199045,12.9873621]},"properties":{"species":"Samanea Saman (Jacq.) Merr.","ward":"79","tree_id":"GN8035OB2UWO001"}},{"type":"Feature","geometry":{"type":"Point","coordinates":[77.6204895,12.9874771]},"properties":{"species":"Samanea Saman (Jacq.) Merr.","ward":"79","tree_id":"GN8035OC2DSB001"}},{"type":"Feature","geometry":{"type":"Point","coordinates":[77.6207705,12.9874861]},"properties":{"species":"Samanea Saman (Jacq.) Merr.","ward":"79","tree_id":"GN8035OC3APH001"}},{"type":"Feature","geometry":{"type":"Point","coordinates":[77.6213135,12.9875261]},"properties":{"species":"Samanea Saman (Jacq.) Merr.","ward":"79","tree_id":"GN8035OC3DUK001"}},{"type":"Feature","geometry":{"type":"Point","coordinates":[77.6213825,12.9875951]},"properties":{"species":"Samanea Saman (Jacq.) Merr.","ward":"79","tree_id":"GN8035OC3IHK001"}},{"type":"Feature","geometry":{"type":"Point","coordinates":[77.6216155,12.9876401]},"properties":{"species":"Samanea Saman (Jacq.) Merr.","ward":"79","tree_id":"GN8035OC3JNP001"}},{"type":"Feature","geometry":{"type":"Point","coordinates":[77.6269286,12.9820301]},"properties":{"species":"Thespesia Populnea","ward":"79","tree_id":"GN8035JG9DYC001"}},{"type":"Feature","geometry":{"type":"Point","coordinates":[77.6276426,12.9820091]},"properties":{"species":"Swietenia Mahagoni (L.) Jacq.","ward":"79","tree_id":"GN8535FG0CTM001"}},{"type":"Feature","geometry":{"type":"Point","coordinates":[77.6276096,12.9819021]},"properties":{"species":"Swietenia Mahagoni (L.) Jacq.","ward":"79","tree_id":"GN8535FG0CDM001"}},{"type":"Feature","geometry":{"type":"Point","coordinates":[77.6276816,12.9818711]},"properties":{"species":"Swietenia Mahagoni (L.) Jacq.","ward":"79","tree_id":"GN8535FG0DAA001"}},{"type":"Feature","geometry":{"type":"Point","coordinates":[77.6278216,12.9818781]},"properties":{"species":"Swietenia Mahagoni (L.) Jacq.","ward":"79","tree_id":"GN8535FG0DDH001"}},{"type":"Feature","geometry":{"type":"Point","coordinates":[77.6278736,12.9818581]},"properties":{"species":"Swietenia Mahagoni (L.) Jacq.","ward":"79","tree_id":"GN8535FF0YUJ001"}},{"type":"Feature","geometry":{"type":"Point","coordinates":[77.6285596,12.9817561]},"properties":{"species":"Swietenia Mahagoni (L.) Jacq.","ward":"79","tree_id":"GN8535FF1WND001"}},{"type":"Feature","geometry":{"type":"Point","coordinates":[77.6287866,12.9816881]},"properties":{"species":"Tabebuia Rosea (Bertol) Dc.","ward":"79","tree_id":"GN8535FF1YAE001"}},{"type":"Feature","geometry":{"type":"Point","coordinates":[77.6288326,12.9816472]},"properties":{"species":"Peltophorum Pterocarpum (Dc.) Back. Ex K. Heyne","ward":"79","tree_id":"GN8535FF1TVB001"}},{"type":"Feature","geometry":{"type":"Point","coordinates":[77.6290786,12.9816252]},"properties":{"species":"Pongamia Pinnata (L.) Pierre","ward":"79","tree_id":"GN8535FF2PSI001"}},{"type":"Feature","geometry":{"type":"Point","coordinates":[77.6292506,12.9816612]},"properties":{"species":"Terminalia Catappa L","ward":"79","tree_id":"GN8535FF2QWL001"}},{"type":"Feature","geometry":{"type":"Point","coordinates":[77.6293296,12.9816432]},"properties":{"species":"Mangifera Indica L.","ward":"79","tree_id":"GN8535FF2QYD001"}},{"type":"Feature","geometry":{"type":"Point","coordinates":[77.6294806,12.9815772]},"properties":{"species":"Markhamia Lutea (Benth.) K.Schum","ward":"79","tree_id":"GN8535FF2ROE001"}},{"type":"Feature","geometry":{"type":"Point","coordinates":[77.6295006,12.9815622]},"properties":{"species":"Azadirachta Indica A. Juss.","ward":"79","tree_id":"GN8535FF2RJO001"}},{"type":"Feature","geometry":{"type":"Point","coordinates":[77.6295756,12.9815442]},"properties":{"species":"Others","ward":"79","tree_id":"GN8535FF2SGK001"}},{"type":"Feature","geometry":{"type":"Point","coordinates":[77.6296196,12.9815992]},"properties":{"species":"Pongamia Pinnata (L.) Pierre","ward":"79","tree_id":"GN8535FF2SRD001"}},{"type":"Feature","geometry":{"type":"Point","coordinates":[77.6298136,12.9815802]},"properties":{"species":"Samanea Saman (Jacq.) Merr.","ward":"79","tree_id":"GN8535FF2TNI001"}},{"type":"Feature","geometry":{"type":"Point","coordinates":[77.6299846,12.9814882]},"properties":{"species":"Pongamia Pinnata (L.) Pierre","ward":"79","tree_id":"GN8535FF3PCC001"}},{"type":"Feature","geometry":{"type":"Point","coordinates":[77.6300676,12.9815082]},"properties":{"species":"Peltophorum Pterocarpum (Dc.) Back. Ex K. Heyne","ward":"79","tree_id":"GN8535FF3PEL001"}},{"type":"Feature","geometry":{"type":"Point","coordinates":[77.6301186,12.9815152]},"properties":{"species":"Pongamia Pinnata (L.) Pierre","ward":"79","tree_id":"GN8535FF3QBN001"}},{"type":"Feature","geometry":{"type":"Point","coordinates":[77.6303806,12.9816332]},"properties":{"species":"Ficus Benjamina L.","ward":"79","tree_id":"GN8535FF3RXB001"}},{"type":"Feature","geometry":{"type":"Point","coordinates":[77.6303836,12.9815652]},"properties":{"species":"Delonix Regia (Bojer Ex Hook.) Raf.","ward":"79","tree_id":"GN8535FF3RNG001"}},{"type":"Feature","geometry":{"type":"Point","coordinates":[77.6303276,12.9816072]},"properties":{"species":"Tabebuia Rosea (Bertol) Dc.","ward":"79","tree_id":"GN8535FF3RRE001"}},{"type":"Feature","geometry":{"type":"Point","coordinates":[77.6304616,12.9815292]},"properties":{"species":"Swietenia Mahagoni (L.) Jacq.","ward":"79","tree_id":"GN8535FF3SFG001"}},{"type":"Feature","geometry":{"type":"Point","coordinates":[77.6305746,12.9815742]},"properties":{"species":"Eugenia Uniflora L","ward":"79","tree_id":"GN8535FF3SNK001"}},{"type":"Feature","geometry":{"type":"Point","coordinates":[77.6304696,12.9815602]},"properties":{"species":"Syzygium Cumini (L.) Skeels","ward":"79","tree_id":"GN8535FF3SKD001"}},{"type":"Feature","geometry":{"type":"Point","coordinates":[77.6307586,12.9815812]},"properties":{"species":"Terminalia Catappa L","ward":"79","tree_id":"GN8535FF3TNO001"}},{"type":"Feature","geometry":{"type":"Point","coordinates":[77.6309596,12.9816632]},"properties":{"species":"Pongamia Pinnata (L.) Pierre","ward":"79","tree_id":"GN8535FF4UEA001"}},{"type":"Feature","geometry":{"type":"Point","coordinates":[77.6273356,12.9818431]},"properties":{"species":"Thespesia Populnea","ward":"80","tree_id":"GN8535FF0VUC001"}},{"type":"Feature","geometry":{"type":"Point","coordinates":[77.6320196,12.9819272]},"properties":{"species":"Samanea Saman (Jacq.) Merr.","ward":"80","tree_id":"GN8535FG5BMP001"}},{"type":"Feature","geometry":{"type":"Point","coordinates":[77.6321926,12.9820252]},"properties":{"species":"Samanea Saman (Jacq.) Merr.","ward":"80","tree_id":"GN8535FG5HCK001"}},{"type":"Feature","geometry":{"type":"Point","coordinates":[77.6322066,12.9820452]},"properties":{"species":"Samanea Saman (Jacq.) Merr.","ward":"80","tree_id":"GN8535FG5HHD001"}},{"type":"Feature","geometry":{"type":"Point","coordinates":[77.6324076,12.9821292]},"properties":{"species":"Samanea Saman (Jacq.) Merr.","ward":"80","tree_id":"GN8535FG5ISF001"}},{"type":"Feature","geometry":{"type":"Point","coordinates":[77.6329616,12.9822592]},"properties":{"species":"Peltophorum Pterocarpum (Dc.) Back. Ex K. Heyne","ward":"80","tree_id":"GN8535FG6LNB001"}},{"type":"Feature","geometry":{"type":"Point","coordinates":[77.6338616,12.9823792]},"properties":{"species":"Thespesia Populnea","ward":"80","tree_id":"GN8535FG7QCO001"}},{"type":"Feature","geometry":{"type":"Point","coordinates":[77.6344576,12.9824322]},"properties":{"species":"Thespesia Populnea","ward":"80","tree_id":"GN8535FG7TNH001"}},{"type":"Feature","geometry":{"type":"Point","coordinates":[77.6346066,12.9823782]},"properties":{"species":"Peltophorum Pterocarpum (Dc.) Back. Ex K. Heyne","ward":"80","tree_id":"GN8535FG8PCP001"}},{"type":"Feature","geometry":{"type":"Point","coordinates":[77.6351246,12.9824682]},"properties":{"species":"Leucaena Latisiliqua (L.) Gillis","ward":"80","tree_id":"GN8535FG8SQL001"}},{"type":"Feature","geometry":{"type":"Point","coordinates":[77.6353056,12.9824692]},"properties":{"species":"Samanea Saman (Jacq.) Merr.","ward":"80","tree_id":"GN8535FG8TQL001"}},{"type":"Feature","geometry":{"type":"Point","coordinates":[77.6353626,12.9825032]},"properties":{"species":"Markhamia Lutea (Benth.) K.Schum","ward":"80","tree_id":"GN8535FG8TXJ001"}},{"type":"Feature","geometry":{"type":"Point","coordinates":[77.6355046,12.9824912]},"properties":{"species":"Samanea Saman (Jacq.) Merr.","ward":"80","tree_id":"GN8535FG9PWE001"}},{"type":"Feature","geometry":{"type":"Point","coordinates":[77.6357366,12.9824752]},"properties":{"species":"Samanea Saman (Jacq.) Merr.","ward":"80","tree_id":"GN8535FG9QSO001"}},{"type":"Feature","geometry":{"type":"Point","coordinates":[77.6359596,12.9825782]},"properties":{"species":"Samanea Saman (Jacq.) Merr.","ward":"80","tree_id":"GN8535FG9WJO001"}},{"type":"Feature","geometry":{"type":"Point","coordinates":[77.6360886,12.9825422]},"properties":{"species":"Samanea Saman (Jacq.) Merr.","ward":"80","tree_id":"GN8535FG9XDM001"}},{"type":"Feature","geometry":{"type":"Point","coordinates":[77.6362626,12.9825592]},"properties":{"species":"Thespesia Populnea","ward":"80","tree_id":"GN8535FG9YHH001"}},{"type":"Feature","geometry":{"type":"Point","coordinates":[77.6363816,12.9826082]},"properties":{"species":"Samanea Saman (Jacq.) Merr.","ward":"80","tree_id":"GN8535GG0ULM001"}},{"type":"Feature","geometry":{"type":"Point","coordinates":[77.6364676,12.9826292]},"properties":{"species":"Thespesia Populnea","ward":"80","tree_id":"GN8535GG0USF001"}},{"type":"Feature","geometry":{"type":"Point","coordinates":[77.6366006,12.9825992]},"properties":{"species":"Delonix Regia (Bojer Ex Hook.) Raf.","ward":"80","tree_id":"GN8535GG0VLL001"}},{"type":"Feature","geometry":{"type":"Point","coordinates":[77.6366096,12.9826132]},"properties":{"species":"Thespesia Populnea","ward":"80","tree_id":"GN8535GG0VRA001"}},{"type":"Feature","geometry":{"type":"Point","coordinates":[77.6368776,12.9826782]},"properties":{"species":"Samanea Saman (Jacq.) Merr.","ward":"80","tree_id":"GN8535GG0WYN001"}},{"type":"Feature","geometry":{"type":"Point","coordinates":[77.6380296,12.9830692]},"properties":{"species":"Terminalia Catappa L","ward":"80","tree_id":"GN8535GH1OFC001"}},{"type":"Feature","geometry":{"type":"Point","coordinates":[77.6398026,12.9837242]},"properties":{"species":"Peltophorum Pterocarpum (Dc.) Back. Ex K. Heyne","ward":"80","tree_id":"GN8535GI3DXK001"}},{"type":"Feature","geometry":{"type":"Point","coordinates":[77.6396186,12.9836682]},"properties":{"species":"Swietenia Mahagoni (L.) Jacq.","ward":"80","tree_id":"GN8535GI3CSC001"}},{"type":"Feature","geometry":{"type":"Point","coordinates":[77.6394006,12.9835832]},"properties":{"species":"Swietenia Mahagoni (L.) Jacq.","ward":"80","tree_id":"GN8535GI3BCK001"}},{"type":"Feature","geometry":{"type":"Point","coordinates":[77.6392796,12.9835992]},"properties":{"species":"Tabebuia Rosea (Bertol) Dc.","ward":"80","tree_id":"GN8535GI3AJB001"}},{"type":"Feature","geometry":{"type":"Point","coordinates":[77.6392016,12.9835112]},"properties":{"species":"Markhamia Lutea (Benth.) K.Schum","ward":"80","tree_id":"GN8535GH3URJ001"}},{"type":"Feature","geometry":{"type":"Point","coordinates":[77.6390216,12.9834262]},"properties":{"species":"Tabebuia Rosea (Bertol) Dc.","ward":"80","tree_id":"GN8535GH2YHB001"}},{"type":"Feature","geometry":{"type":"Point","coordinates":[77.6384656,12.9832192]},"properties":{"species":"Swietenia Mahagoni (L.) Jacq.","ward":"80","tree_id":"GN8535GH2QCF001"}},{"type":"Feature","geometry":{"type":"Point","coordinates":[77.6382106,12.9831552]},"properties":{"species":"Swietenia Mahagoni (L.) Jacq.","ward":"80","tree_id":"GN8535GH2KPJ001"}},{"type":"Feature","geometry":{"type":"Point","coordinates":[77.6451496,12.9850232]},"properties":{"species":"Tabebuia Rosea (Bertol) Dc.","ward":"80","tree_id":"GN8535GJ9RNB001"}},{"type":"Feature","geometry":{"type":"Point","coordinates":[77.6451626,12.9850702]},"properties":{"species":"Others","ward":"80","tree_id":"GN8535GJ9RSG001"}},{"type":"Feature","geometry":{"type":"Point","coordinates":[77.6451216,12.9850972]},"properties":{"species":"Syzygium Cumini (L.) Skeels","ward":"80","tree_id":"GN8535GJ9RWB001"}},{"type":"Feature","geometry":{"type":"Point","coordinates":[77.6450546,12.9853962]},"properties":{"species":"Ailanthus Triphysa (Dennst.) Alston","ward":"80","tree_id":"GN8535LA9CKG001"}},{"type":"Feature","geometry":{"type":"Point","coordinates":[77.6450516,12.9855212]},"properties":{"species":"Tabebuia Rosea (Bertol) Dc.","ward":"80","tree_id":"GN8535LA9HAN001"}},{"type":"Feature","geometry":{"type":"Point","coordinates":[77.6449906,12.9855872]},"properties":{"species":"Peltophorum Pterocarpum (Dc.) Back. Ex K. Heyne","ward":"80","tree_id":"GN8535LA9GNL001"}},{"type":"Feature","geometry":{"type":"Point","coordinates":[77.6437916,12.9850692]},"properties":{"species":"Peltophorum Pterocarpum (Dc.) Back. Ex K. Heyne","ward":"80","tree_id":"GN8535GJ8PQB001"}},{"type":"Feature","geometry":{"type":"Point","coordinates":[77.6440296,12.9852202]},"properties":{"species":"Muntingia Calabura L.","ward":"80","tree_id":"GN8535GJ8VMH001"}},{"type":"Feature","geometry":{"type":"Point","coordinates":[77.6435856,12.9850492]},"properties":{"species":"Markhamia Lutea (Benth.) K.Schum","ward":"80","tree_id":"GN8535GJ7TKH001"}},{"type":"Feature","geometry":{"type":"Point","coordinates":[77.6427926,12.9848012]},"properties":{"species":"Peltophorum Pterocarpum (Dc.) Back. Ex K. Heyne","ward":"80","tree_id":"GN8535GJ6OEF001"}},{"type":"Feature","geometry":{"type":"Point","coordinates":[77.6427926,12.9848012]},"properties":{"species":"Peltophorum Pterocarpum (Dc.) Back. Ex K. Heyne","ward":"80","tree_id":"GN8535GJ6OEF002"}},{"type":"Feature","geometry":{"type":"Point","coordinates":[77.6454216,12.9839152]},"properties":{"species":"Ficus Benjamina L.","ward":"80","tree_id":"GN8535GI9OFL001"}},{"type":"Feature","geometry":{"type":"Point","coordinates":[77.6454796,12.9837742]},"properties":{"species":"Syzygium Cumini (L.) Skeels","ward":"80","tree_id":"GN8535GI9JMK001"}},{"type":"Feature","geometry":{"type":"Point","coordinates":[77.6453976,12.9840382]},"properties":{"species":"Ficus Benjamina L.","ward":"80","tree_id":"GN8535GI9OUN001"}},{"type":"Feature","geometry":{"type":"Point","coordinates":[77.6453576,12.9841782]},"properties":{"species":"Ficus Benjamina L.","ward":"80","tree_id":"GN8535GI9STM001"}},{"type":"Feature","geometry":{"type":"Point","coordinates":[77.6453546,12.9844562]},"properties":{"species":"Ficus Benjamina L.","ward":"80","tree_id":"GN8535GJ9DIL001"}},{"type":"Feature","geometry":{"type":"Point","coordinates":[77.6452846,12.9846982]},"properties":{"species":"Ficus Benjamina L.","ward":"80","tree_id":"GN8535GJ9IRA001"}},{"type":"Feature","geometry":{"type":"Point","coordinates":[77.6452406,12.9848632]},"properties":{"species":"Ficus Benjamina L.","ward":"80","tree_id":"GN8535GJ9NKP001"}},{"type":"Feature","geometry":{"type":"Point","coordinates":[77.6456396,12.9835702]},"properties":{"species":"Swietenia Mahagoni (L.) Jacq.","ward":"58","tree_id":"GN8535HI0ALD001"}},{"type":"Feature","geometry":{"type":"Point","coordinates":[77.6456136,12.9837042]},"properties":{"species":"Terminalia Catappa L","ward":"58","tree_id":"GN8535HI0FBM001"}},{"type":"Feature","geometry":{"type":"Point","coordinates":[77.6455956,12.9837692]},"properties":{"species":"Terminalia Catappa L","ward":"58","tree_id":"GN8535HI0FKK001"}},{"type":"Feature","geometry":{"type":"Point","coordinates":[77.6455236,12.9838482]},"properties":{"species":"Swietenia Mahagoni (L.) Jacq.","ward":"58","tree_id":"GN8535GI9JXL001"}},{"type":"Feature","geometry":{"type":"Point","coordinates":[77.6455556,12.9837772]},"properties":{"species":"Terminalia Catappa L","ward":"58","tree_id":"GN8535GI9JOO001"}},{"type":"Feature","geometry":{"type":"Point","coordinates":[77.6455616,12.9838802]},"properties":{"species":"Samanea Saman (Jacq.) Merr.","ward":"58","tree_id":"GN8535GI9OEL001"}},{"type":"Feature","geometry":{"type":"Point","coordinates":[77.6455976,12.9835242]},"properties":{"species":"Azadirachta Indica A. Juss.","ward":"58","tree_id":"GN8535HI0AAP001"}},{"type":"Feature","geometry":{"type":"Point","coordinates":[77.6455146,12.9840372]},"properties":{"species":"Swietenia Mahagoni (L.) Jacq.","ward":"58","tree_id":"GN8535GI9OXN001"}},{"type":"Feature","geometry":{"type":"Point","coordinates":[77.6454476,12.9842652]},"properties":{"species":"Samanea Saman (Jacq.) Merr.","ward":"58","tree_id":"GN8535GI9YGG001"}},{"type":"Feature","geometry":{"type":"Point","coordinates":[77.6454176,12.9843032]},"properties":{"species":"Samanea Saman (Jacq.) Merr.","ward":"58","tree_id":"GN8535GI9YKH001"}},{"type":"Feature","geometry":{"type":"Point","coordinates":[77.6454856,12.9842282]},"properties":{"species":"Samanea Saman (Jacq.) Merr.","ward":"58","tree_id":"GN8535GI9YCC001"}},{"type":"Feature","geometry":{"type":"Point","coordinates":[77.6454086,12.9844692]},"properties":{"species":"Swietenia Mahagoni (L.) Jacq.","ward":"58","tree_id":"GN8535GJ9EFN001"}},{"type":"Feature","geometry":{"type":"Point","coordinates":[77.6453836,12.9845412]},"properties":{"species":"Swietenia Mahagoni (L.) Jacq.","ward":"58","tree_id":"GN8535GJ9DTP001"}},{"type":"Feature","geometry":{"type":"Point","coordinates":[77.6453446,12.9847332]},"properties":{"species":"Terminalia Catappa L","ward":"58","tree_id":"GN8535GJ9IXC001"}},{"type":"Feature","geometry":{"type":"Point","coordinates":[77.6453176,12.9847892]},"properties":{"species":"Swietenia Mahagoni (L.) Jacq.","ward":"58","tree_id":"GN8535GJ9NCL001"}},{"type":"Feature","geometry":{"type":"Point","coordinates":[77.6453456,12.9849402]},"properties":{"species":"Eugenia Uniflora L","ward":"58","tree_id":"GN8535GJ9NXO001"}},{"type":"Feature","geometry":{"type":"Point","coordinates":[77.6452896,12.9850742]},"properties":{"species":"Samanea Saman (Jacq.) Merr.","ward":"58","tree_id":"GN8535GJ9SRI001"}},{"type":"Feature","geometry":{"type":"Point","coordinates":[77.6453626,12.9847482]},"properties":{"species":"Thespesia Populnea","ward":"58","tree_id":"GN8535GJ9IYI001"}},{"type":"Feature","geometry":{"type":"Point","coordinates":[77.6452266,12.9851482]},"properties":{"species":"Swietenia Mahagoni (L.) Jacq.","ward":"58","tree_id":"GN8535GJ9XAJ001"}},{"type":"Feature","geometry":{"type":"Point","coordinates":[77.6452636,12.9854632]},"properties":{"species":"Muntingia Calabura L.","ward":"58","tree_id":"GN8535LA9DVE001"}},{"type":"Feature","geometry":{"type":"Point","coordinates":[77.6452926,12.9853832]},"properties":{"species":"Others","ward":"58","tree_id":"GN8535LA9DMA001"}},{"type":"Feature","geometry":{"type":"Point","coordinates":[77.6453206,12.9853992]},"properties":{"species":"Muntingia Calabura L.","ward":"58","tree_id":"GN8535LA9DML001"}},{"type":"Feature","geometry":{"type":"Point","coordinates":[77.6452016,12.9853722]},"properties":{"species":"Tabebuia Rosea (Bertol) Dc.","ward":"58","tree_id":"GN8535LA9CJO001"}},{"type":"Feature","geometry":{"type":"Point","coordinates":[77.6451656,12.9857622]},"properties":{"species":"Peltophorum Pterocarpum (Dc.) Back. Ex K. Heyne","ward":"58","tree_id":"GN8535LA9MNJ001"}},{"type":"Feature","geometry":{"type":"Point","coordinates":[77.6474446,12.9866602]},"properties":{"species":"Peltophorum Pterocarpum (Dc.) Back. Ex K. Heyne","ward":"58","tree_id":"GN8535MB2KPA001"}},{"type":"Feature","geometry":{"type":"Point","coordinates":[77.6477386,12.9867442]},"properties":{"species":"Markhamia Lutea (Benth.) K.Schum","ward":"58","tree_id":"GN8535MB2QDI001"}},{"type":"Feature","geometry":{"type":"Point","coordinates":[77.6478216,12.9868272]},"properties":{"species":"Markhamia Lutea (Benth.) K.Schum","ward":"58","tree_id":"GN8535MB2RKN001"}},{"type":"Feature","geometry":{"type":"Point","coordinates":[77.6484206,12.9871072]},"properties":{"species":"Pongamia Pinnata (L.) Pierre","ward":"57","tree_id":"GN8535MC3ABJ001"}},{"type":"Feature","geometry":{"type":"Point","coordinates":[77.6495616,12.9875502]},"properties":{"species":"Pongamia Pinnata (L.) Pierre","ward":"57","tree_id":"GN8535MC4LRF001"}},{"type":"Feature","geometry":{"type":"Point","coordinates":[77.6496256,12.9875582]},"properties":{"species":"Pongamia Pinnata (L.) Pierre","ward":"57","tree_id":"GN8535MC4LTI001"}},{"type":"Feature","geometry":{"type":"Point","coordinates":[77.6497126,12.9877032]},"properties":{"species":"Tabebuia Rosea (Bertol) Dc.","ward":"57","tree_id":"GN8535MC4RLJ001"}},{"type":"Feature","geometry":{"type":"Point","coordinates":[77.6498416,12.9876772]},"properties":{"species":"Pongamia Pinnata (L.) Pierre","ward":"57","tree_id":"GN8535MC4RJP001"}},{"type":"Feature","geometry":{"type":"Point","coordinates":[77.6498416,12.9876772]},"properties":{"species":"Thespesia Populnea","ward":"57","tree_id":"GN8535MC4RJP002"}},{"type":"Feature","geometry":{"type":"Point","coordinates":[77.6506936,12.9881352]},"properties":{"species":"Ficus Benjamina L.","ward":"57","tree_id":"GN8535MD5CWP001"}},{"type":"Feature","geometry":{"type":"Point","coordinates":[77.6509866,12.9882032]},"properties":{"species":"Leucaena Latisiliqua (L.) Gillis","ward":"57","tree_id":"GN8535MD5JFP001"}},{"type":"Feature","geometry":{"type":"Point","coordinates":[77.6525606,12.9889712]},"properties":{"species":"Swietenia Mahagoni (L.) Jacq.","ward":"57","tree_id":"GN8535ME7CSJ001"}},{"type":"Feature","geometry":{"type":"Point","coordinates":[77.6537786,12.9895112]},"properties":{"species":"Pongamia Pinnata (L.) Pierre","ward":"57","tree_id":"GN8535ME8TQM001"}},{"type":"Feature","geometry":{"type":"Point","coordinates":[77.6539016,12.9895892]},"properties":{"species":"Ficus Benjamina L.","ward":"57","tree_id":"GN8535ME8YEN001"}},{"type":"Feature","geometry":{"type":"Point","coordinates":[77.6542286,12.9897222]},"properties":{"species":"Pongamia Pinnata (L.) Pierre","ward":"57","tree_id":"GN8535ME9VXN001"}},{"type":"Feature","geometry":{"type":"Point","coordinates":[77.6542876,12.9897492]},"properties":{"species":"Pongamia Pinnata (L.) Pierre","ward":"57","tree_id":"GN8535MF9BEL001"}},{"type":"Feature","geometry":{"type":"Point","coordinates":[77.6545656,12.9898952]},"properties":{"species":"Ficus Benjamina L.","ward":"57","tree_id":"GN8535MF9DWJ001"}},{"type":"Feature","geometry":{"type":"Point","coordinates":[77.6551636,12.9901632]},"properties":{"species":"Pongamia Pinnata (L.) Pierre","ward":"57","tree_id":"GN8535NF0LNC001"}},{"type":"Feature","geometry":{"type":"Point","coordinates":[77.6552616,12.9902622]},"properties":{"species":"Pongamia Pinnata (L.) Pierre","ward":"57","tree_id":"GN8535NF0MVM001"}},{"type":"Feature","geometry":{"type":"Point","coordinates":[77.6553016,12.9902492]},"properties":{"species":"Pongamia Pinnata (L.) Pierre","ward":"57","tree_id":"GN8535NF0MWJ001"}},{"type":"Feature","geometry":{"type":"Point","coordinates":[77.6552906,12.9902592]},"properties":{"species":"Swietenia Mahagoni (L.) Jacq.","ward":"57","tree_id":"GN8535NF0MVP001"}},{"type":"Feature","geometry":{"type":"Point","coordinates":[77.6557826,12.9904592]},"properties":{"species":"Pongamia Pinnata (L.) Pierre","ward":"57","tree_id":"GN8535NF1UAJ001"}},{"type":"Feature","geometry":{"type":"Point","coordinates":[77.6560536,12.9906172]},"properties":{"species":"Swietenia Mahagoni (L.) Jacq.","ward":"57","tree_id":"GN8535NG1BCC001"}},{"type":"Feature","geometry":{"type":"Point","coordinates":[77.6566946,12.9909622]},"properties":{"species":"Pongamia Pinnata (L.) Pierre","ward":"57","tree_id":"GN8535NG1JYP001"}},{"type":"Feature","geometry":{"type":"Point","coordinates":[77.6567106,12.9909522]},"properties":{"species":"Swietenia Mahagoni (L.) Jacq.","ward":"57","tree_id":"GN8535NG2FUF001"}},{"type":"Feature","geometry":{"type":"Point","coordinates":[77.6566666,12.9909622]},"properties":{"species":"Pongamia Pinnata (L.) Pierre","ward":"57","tree_id":"GN8535NG1JYM001"}},{"type":"Feature","geometry":{"type":"Point","coordinates":[77.6567256,12.9909432]},"properties":{"species":"Swietenia Mahagoni (L.) Jacq.","ward":"57","tree_id":"GN8535NG2FUG001"}},{"type":"Feature","geometry":{"type":"Point","coordinates":[77.6568196,12.9909622]},"properties":{"species":"Swietenia Mahagoni (L.) Jacq.","ward":"57","tree_id":"GN8535NG2FXN001"}},{"type":"Feature","geometry":{"type":"Point","coordinates":[77.6565676,12.9909232]},"properties":{"species":"Pongamia Pinnata (L.) Pierre","ward":"57","tree_id":"GN8535NG1JQJ001"}},{"type":"Feature","geometry":{"type":"Point","coordinates":[77.6578876,12.9915602]},"properties":{"species":"Swietenia Mahagoni (L.) Jacq.","ward":"57","tree_id":"GN8535NH3BHI001"}},{"type":"Feature","geometry":{"type":"Point","coordinates":[77.6577976,12.9914872]},"properties":{"species":"Pongamia Pinnata (L.) Pierre","ward":"57","tree_id":"GN8535NG3UYK001"}},{"type":"Feature","geometry":{"type":"Point","coordinates":[77.6579616,12.9915162]},"properties":{"species":"Ficus Benjamina L.","ward":"57","tree_id":"GN8535NH3BEE001"}},{"type":"Feature","geometry":{"type":"Point","coordinates":[77.6598016,12.9924603]},"properties":{"species":"Swietenia Mahagoni (L.) Jacq.","ward":"57","tree_id":"GN8535NI5BND001"}},{"type":"Feature","geometry":{"type":"Point","coordinates":[77.6597936,12.9924593]},"properties":{"species":"Swietenia Mahagoni (L.) Jacq.","ward":"57","tree_id":"GN8535NI5BNC001"}},{"type":"Feature","geometry":{"type":"Point","coordinates":[77.6604416,12.9927583]},"properties":{"species":"Pongamia Pinnata (L.) Pierre","ward":"57","tree_id":"GN8535NI6KBI001"}},{"type":"Feature","geometry":{"type":"Point","coordinates":[77.6607866,12.9929423]},"properties":{"species":"Swietenia Mahagoni (L.) Jacq.","ward":"57","tree_id":"GN8535NI6RAJ001"}},{"type":"Feature","geometry":{"type":"Point","coordinates":[77.6617776,12.9933753]},"properties":{"species":"Pongamia Pinnata (L.) Pierre","ward":"57","tree_id":"GN8535NJ7CMM001"}},{"type":"Feature","geometry":{"type":"Point","coordinates":[77.6619796,12.9934743]},"properties":{"species":"Swietenia Mahagoni (L.) Jacq.","ward":"57","tree_id":"GN8535NJ7ICO001"}},{"type":"Feature","geometry":{"type":"Point","coordinates":[77.6620526,12.9935223]},"properties":{"species":"Pongamia Pinnata (L.) Pierre","ward":"57","tree_id":"GN8535NJ7IOC001"}},{"type":"Feature","geometry":{"type":"Point","coordinates":[77.6099405,12.9936151]},"properties":{"species":"Samanea Saman (Jacq.) Merr.","ward":"78","tree_id":"GN8035NI1VAB001"}},{"type":"Feature","geometry":{"type":"Point","coordinates":[77.6099235,12.9935711]},"properties":{"species":"Samanea Saman (Jacq.) Merr.","ward":"78","tree_id":"GN8035NI1PTP001"}},{"type":"Feature","geometry":{"type":"Point","coordinates":[77.6099085,12.9935491]},"properties":{"species":"Enterolobium Contortisiliqum (Vell.)","ward":"78","tree_id":"GN8035NI1PTB001"}},{"type":"Feature","geometry":{"type":"Point","coordinates":[77.6098645,12.9934261]},"properties":{"species":"Samanea Saman (Jacq.) Merr.","ward":"78","tree_id":"GN8035NI1KXN001"}},{"type":"Feature","geometry":{"type":"Point","coordinates":[77.6098945,12.9934381]},"properties":{"species":"Enterolobium Contortisiliqum (Vell.)","ward":"78","tree_id":"GN8035NI1PEA001"}},{"type":"Feature","geometry":{"type":"Point","coordinates":[77.6098785,12.9933951]},"properties":{"species":"Ptychosperma Macarthuri Nichols","ward":"78","tree_id":"GN8035NI1KSO001"}},{"type":"Feature","geometry":{"type":"Point","coordinates":[77.6097905,12.9933051]},"properties":{"species":"Ptychosperma Macarthuri Nichols","ward":"78","tree_id":"GN8035NI1KGF001"}},{"type":"Feature","geometry":{"type":"Point","coordinates":[77.6097945,12.9932911]},"properties":{"species":"Ptychosperma Macarthuri Nichols","ward":"78","tree_id":"GN8035NI1KGB001"}},{"type":"Feature","geometry":{"type":"Point","coordinates":[77.6098035,12.9932831]},"properties":{"species":"Ptychosperma Macarthuri Nichols","ward":"78","tree_id":"GN8035NI1KBO001"}},{"type":"Feature","geometry":{"type":"Point","coordinates":[77.6097975,12.9931941]},"properties":{"species":"Ptychosperma Macarthuri Nichols","ward":"78","tree_id":"GN8035NI1FQG001"}},{"type":"Feature","geometry":{"type":"Point","coordinates":[77.6098655,12.9932831]},"properties":{"species":"Ptychosperma Macarthuri Nichols","ward":"78","tree_id":"GN8035NI1KDN001"}},{"type":"Feature","geometry":{"type":"Point","coordinates":[77.6098125,12.9932341]},"properties":{"species":"Ptychosperma Macarthuri Nichols","ward":"78","tree_id":"GN8035NI1FVH001"}},{"type":"Feature","geometry":{"type":"Point","coordinates":[77.6097875,12.9932001]},"properties":{"species":"Ptychosperma Macarthuri Nichols","ward":"78","tree_id":"GN8035NI1FQJ001"}},{"type":"Feature","geometry":{"type":"Point","coordinates":[77.6098185,12.9932011]},"properties":{"species":"Ptychosperma Macarthuri Nichols","ward":"78","tree_id":"GN8035NI1FRI001"}},{"type":"Feature","geometry":{"type":"Point","coordinates":[77.6098315,12.9931801]},"properties":{"species":"Ptychosperma Macarthuri Nichols","ward":"78","tree_id":"GN8035NI1FMO001"}},{"type":"Feature","geometry":{"type":"Point","coordinates":[77.6098445,12.9932301]},"properties":{"species":"Ptychosperma Macarthuri Nichols","ward":"78","tree_id":"GN8035NI1FWH001"}},{"type":"Feature","geometry":{"type":"Point","coordinates":[77.6098195,12.9931991]},"properties":{"species":"Ptychosperma Macarthuri Nichols","ward":"78","tree_id":"GN8035NI1FRI002"}},{"type":"Feature","geometry":{"type":"Point","coordinates":[77.6097725,12.9932071]},"properties":{"species":"Samanea Saman (Jacq.) Merr.","ward":"78","tree_id":"GN8035NI1FPL001"}},{"type":"Feature","geometry":{"type":"Point","coordinates":[77.6098425,12.9932011]},"properties":{"species":"Cassia Javanica L.","ward":"78","tree_id":"GN8035NI1FRL001"}},{"type":"Feature","geometry":{"type":"Point","coordinates":[77.6098065,12.9931921]},"properties":{"species":"Araucaria Columnaris","ward":"78","tree_id":"GN8035NI1FQH001"}},{"type":"Feature","geometry":{"type":"Point","coordinates":[77.6097375,12.9931171]},"properties":{"species":"Thespesia Populnea","ward":"78","tree_id":"GN8035NI0JJD001"}},{"type":"Feature","geometry":{"type":"Point","coordinates":[77.6096985,12.9931641]},"properties":{"species":"Spathodea Campanulata P. Beauv","ward":"78","tree_id":"GN8035NI0JNL001"}},{"type":"Feature","geometry":{"type":"Point","coordinates":[77.6097545,12.9932021]},"properties":{"species":"Enterolobium Contortisiliqum (Vell.)","ward":"78","tree_id":"GN8035NI1FPJ001"}},{"type":"Feature","geometry":{"type":"Point","coordinates":[77.6096705,12.9930811]},"properties":{"species":"Samanea Saman (Jacq.) Merr.","ward":"78","tree_id":"GN8035NI0JDA001"}},{"type":"Feature","geometry":{"type":"Point","coordinates":[77.6097285,12.9931131]},"properties":{"species":"Ptychosperma Macarthuri Nichols","ward":"78","tree_id":"GN8035NI0JJC001"}},{"type":"Feature","geometry":{"type":"Point","coordinates":[77.6097455,12.9930611]},"properties":{"species":"Ptychosperma Macarthuri Nichols","ward":"78","tree_id":"GN8035NI1AUI001"}},{"type":"Feature","geometry":{"type":"Point","coordinates":[77.6097775,12.9930771]},"properties":{"species":"Ptychosperma Macarthuri Nichols","ward":"78","tree_id":"GN8035NI1FBA001"}},{"type":"Feature","geometry":{"type":"Point","coordinates":[77.6097595,12.9930251]},"properties":{"species":"Ptychosperma Macarthuri Nichols","ward":"78","tree_id":"GN8035NI1APK001"}},{"type":"Feature","geometry":{"type":"Point","coordinates":[77.6097775,12.9929731]},"properties":{"species":"Samanea Saman (Jacq.) Merr.","ward":"78","tree_id":"GN8035NI1ALE001"}},{"type":"Feature","geometry":{"type":"Point","coordinates":[77.6097235,12.9929911]},"properties":{"species":"Ptychosperma Macarthuri Nichols","ward":"78","tree_id":"GN8035NI0EOK001"}},{"type":"Feature","geometry":{"type":"Point","coordinates":[77.6097195,12.9930031]},"properties":{"species":"Ptychosperma Macarthuri Nichols","ward":"78","tree_id":"GN8035NI0ETC001"}},{"type":"Feature","geometry":{"type":"Point","coordinates":[77.6097205,12.9929891]},"properties":{"species":"Ptychosperma Macarthuri Nichols","ward":"78","tree_id":"GN8035NI0EOK001"}},{"type":"Feature","geometry":{"type":"Point","coordinates":[77.6096955,12.9929641]},"properties":{"species":"Ptychosperma Macarthuri Nichols","ward":"78","tree_id":"GN8035NI0EIP001"}},{"type":"Feature","geometry":{"type":"Point","coordinates":[77.6096935,12.9929781]},"properties":{"species":"Ptychosperma Macarthuri Nichols","ward":"78","tree_id":"GN8035NI0ENH001"}},{"type":"Feature","geometry":{"type":"Point","coordinates":[77.6096765,12.9929131]},"properties":{"species":"Ptychosperma Macarthuri Nichols","ward":"78","tree_id":"GN8035NI0EDJ001"}},{"type":"Feature","geometry":{"type":"Point","coordinates":[77.6096905,12.9929131]},"properties":{"species":"Ptychosperma Macarthuri Nichols","ward":"78","tree_id":"GN8035NI0EDL001"}},{"type":"Feature","geometry":{"type":"Point","coordinates":[77.6096925,12.9929621]},"properties":{"species":"Ptychosperma Macarthuri Nichols","ward":"78","tree_id":"GN8035NI0EIP002"}},{"type":"Feature","geometry":{"type":"Point","coordinates":[77.6096995,12.9928961]},"properties":{"species":"Ptychosperma Macarthuri Nichols","ward":"78","tree_id":"GN8035NI0EEA001"}},{"type":"Feature","geometry":{"type":"Point","coordinates":[77.6096675,12.9928851]},"properties":{"species":"Ptychosperma Macarthuri Nichols","ward":"78","tree_id":"GN8035NH0YXM001"}},{"type":"Feature","geometry":{"type":"Point","coordinates":[77.6096655,12.9929151]},"properties":{"species":"Ptychosperma Macarthuri Nichols","ward":"78","tree_id":"GN8035NI0EDI001"}},{"type":"Feature","geometry":{"type":"Point","coordinates":[77.6097025,12.9929091]},"properties":{"species":"Pongamia Pinnata (L.) Pierre","ward":"78","tree_id":"GN8035NI0EEE001"}},{"type":"Feature","geometry":{"type":"Point","coordinates":[77.6096725,12.9929151]},"properties":{"species":"Ptychosperma Macarthuri Nichols","ward":"78","tree_id":"GN8035NI0EDJ002"}},{"type":"Feature","geometry":{"type":"Point","coordinates":[77.6096725,12.9928881]},"properties":{"species":"Ptychosperma Macarthuri Nichols","ward":"78","tree_id":"GN8035NH0YXN001"}},{"type":"Feature","geometry":{"type":"Point","coordinates":[77.6097065,12.9929341]},"properties":{"species":"Ptychosperma Macarthuri Nichols","ward":"78","tree_id":"GN8035NI0EJA001"}},{"type":"Feature","geometry":{"type":"Point","coordinates":[77.6096595,12.9929461]},"properties":{"species":"Ptychosperma Macarthuri Nichols","ward":"78","tree_id":"GN8035NI0EHH001"}},{"type":"Feature","geometry":{"type":"Point","coordinates":[77.6096605,12.9929901]},"properties":{"species":"Ptychosperma Macarthuri Nichols","ward":"78","tree_id":"GN8035NI0EML001"}},{"type":"Feature","geometry":{"type":"Point","coordinates":[77.6096465,12.9929601]},"properties":{"species":"Ptychosperma Macarthuri Nichols","ward":"78","tree_id":"GN8035NI0EHO001"}},{"type":"Feature","geometry":{"type":"Point","coordinates":[77.6096735,12.9929541]},"properties":{"species":"Ptychosperma Macarthuri Nichols","ward":"78","tree_id":"GN8035NI0EIJ001"}},{"type":"Feature","geometry":{"type":"Point","coordinates":[77.6096945,12.9929621]},"properties":{"species":"Ptychosperma Macarthuri Nichols","ward":"78","tree_id":"GN8035NI0EIP003"}},{"type":"Feature","geometry":{"type":"Point","coordinates":[77.6096845,12.9929721]},"properties":{"species":"Ptychosperma Macarthuri Nichols","ward":"78","tree_id":"GN8035NI0ENC001"}},{"type":"Feature","geometry":{"type":"Point","coordinates":[77.6097075,12.9929621]},"properties":{"species":"Ptychosperma Macarthuri Nichols","ward":"78","tree_id":"GN8035NI0EJM001"}},{"type":"Feature","geometry":{"type":"Point","coordinates":[77.6096795,12.9929831]},"properties":{"species":"Spathodea Campanulata P. Beauv","ward":"78","tree_id":"GN8035NI0ENF001"}},{"type":"Feature","geometry":{"type":"Point","coordinates":[77.6097155,12.9929941]},"properties":{"species":"Ptychosperma Macarthuri Nichols","ward":"78","tree_id":"GN8035NI0EON001"}},{"type":"Feature","geometry":{"type":"Point","coordinates":[77.6096465,12.9929621]},"properties":{"species":"Ptychosperma Macarthuri Nichols","ward":"78","tree_id":"GN8035NI0EHO002"}},{"type":"Feature","geometry":{"type":"Point","coordinates":[77.6093225,12.9930091]},"properties":{"species":"Samanea Saman (Jacq.) Merr.","ward":"78","tree_id":"GN8035NI0CSC001"}},{"type":"Feature","geometry":{"type":"Point","coordinates":[77.6095455,12.9931141]},"properties":{"species":"Ptychosperma Macarthuri Nichols","ward":"78","tree_id":"GN8035NI0IJD001"}},{"type":"Feature","geometry":{"type":"Point","coordinates":[77.6096005,12.9929931]},"properties":{"species":"Spathodea Campanulata P. Beauv","ward":"78","tree_id":"GN8035NI0ELN001"}},{"type":"Feature","geometry":{"type":"Point","coordinates":[77.6094725,12.9931191]},"properties":{"species":"Samanea Saman (Jacq.) Merr.","ward":"78","tree_id":"GN8035NI0IHD001"}},{"type":"Feature","geometry":{"type":"Point","coordinates":[77.6094705,12.9931071]},"properties":{"species":"Spathodea Campanulata P. Beauv","ward":"78","tree_id":"GN8035NI0ICO001"}},{"type":"Feature","geometry":{"type":"Point","coordinates":[77.6094265,12.9932081]},"properties":{"species":"Saraca Asoca (Roxb.) De Wilde","ward":"78","tree_id":"GN8035NI0IQK001"}},{"type":"Feature","geometry":{"type":"Point","coordinates":[77.6093985,12.9932371]},"properties":{"species":"Markhamia Lutea (Benth.) K.Schum","ward":"78","tree_id":"GN8035NI0IUG001"}},{"type":"Feature","geometry":{"type":"Point","coordinates":[77.6093505,12.9932291]},"properties":{"species":"Cassia Javanica L.","ward":"78","tree_id":"GN8035NI0HYB001"}},{"type":"Feature","geometry":{"type":"Point","coordinates":[77.6094035,12.9931791]},"properties":{"species":"Markhamia Lutea (Benth.) K.Schum","ward":"78","tree_id":"GN8035NI0IKP001"}},{"type":"Feature","geometry":{"type":"Point","coordinates":[77.6092195,12.9933091]},"properties":{"species":"Cassia Javanica L.","ward":"78","tree_id":"GN8035NI0MFH001"}},{"type":"Feature","geometry":{"type":"Point","coordinates":[77.6092815,12.9932771]},"properties":{"species":"Spathodea Campanulata P. Beauv","ward":"78","tree_id":"GN8035NI0MCK001"}},{"type":"Feature","geometry":{"type":"Point","coordinates":[77.6092315,12.9933491]},"properties":{"species":"Saraca Asoca (Roxb.) De Wilde","ward":"78","tree_id":"GN8035NI0MLI001"}},{"type":"Feature","geometry":{"type":"Point","coordinates":[77.6092465,12.9933311]},"properties":{"species":"Saraca Asoca (Roxb.) De Wilde","ward":"78","tree_id":"GN8035NI0MLC001"}},{"type":"Feature","geometry":{"type":"Point","coordinates":[77.6091645,12.9934441]},"properties":{"species":"Markhamia Lutea (Benth.) K.Schum","ward":"78","tree_id":"GN8035NI0QEB001"}},{"type":"Feature","geometry":{"type":"Point","coordinates":[77.6091815,12.9934681]},"properties":{"species":"Pongamia Pinnata (L.) Pierre","ward":"78","tree_id":"GN8035NI0QEP001"}},{"type":"Feature","geometry":{"type":"Point","coordinates":[77.6091555,12.9933891]},"properties":{"species":"Pongamia Pinnata (L.) Pierre","ward":"78","tree_id":"GN8035NI0LTI001"}},{"type":"Feature","geometry":{"type":"Point","coordinates":[77.6091495,12.9934881]},"properties":{"species":"Millingtonia Hortensis L.F","ward":"78","tree_id":"GN8035NI0QIH001"}},{"type":"Feature","geometry":{"type":"Point","coordinates":[77.6090925,12.9934491]},"properties":{"species":"Pongamia Pinnata (L.) Pierre","ward":"78","tree_id":"GN8035NI0QCB001"}},{"type":"Feature","geometry":{"type":"Point","coordinates":[77.6091405,12.9934921]},"properties":{"species":"Markhamia Lutea (Benth.) K.Schum","ward":"78","tree_id":"GN8035NI0QIG001"}},{"type":"Feature","geometry":{"type":"Point","coordinates":[77.6090475,12.9935161]},"properties":{"species":"Markhamia Lutea (Benth.) K.Schum","ward":"78","tree_id":"GN8035NI0QLA001"}},{"type":"Feature","geometry":{"type":"Point","coordinates":[77.6090575,12.9934861]},"properties":{"species":"Markhamia Lutea (Benth.) K.Schum","ward":"78","tree_id":"GN8035NI0QGB001"}},{"type":"Feature","geometry":{"type":"Point","coordinates":[77.6090335,12.9935231]},"properties":{"species":"Markhamia Lutea (Benth.) K.Schum","ward":"78","tree_id":"GN8035NI0QKH001"}},{"type":"Feature","geometry":{"type":"Point","coordinates":[77.6090135,12.9934901]},"properties":{"species":"Markhamia Lutea (Benth.) K.Schum","ward":"78","tree_id":"GN8035NI0QFE001"}},{"type":"Feature","geometry":{"type":"Point","coordinates":[77.6090455,12.9935311]},"properties":{"species":"Michelia Longifolia Blume","ward":"78","tree_id":"GN8035NI0QLE001"}},{"type":"Feature","geometry":{"type":"Point","coordinates":[77.6089575,12.9935631]},"properties":{"species":"Markhamia Lutea (Benth.) K.Schum","ward":"78","tree_id":"GN8035NI0PSG001"}},{"type":"Feature","geometry":{"type":"Point","coordinates":[77.6089915,12.9935301]},"properties":{"species":"Spathodea Campanulata P. Beauv","ward":"78","tree_id":"GN8035NI0POG001"}},{"type":"Feature","geometry":{"type":"Point","coordinates":[77.6089205,12.9935601]},"properties":{"species":"Samanea Saman (Jacq.) Merr.","ward":"78","tree_id":"GN8035NI0PRG001"}},{"type":"Feature","geometry":{"type":"Point","coordinates":[77.6089575,12.9935441]},"properties":{"species":"Enterolobium Contortisiliqum (Vell.)","ward":"78","tree_id":"GN8035NI0PNO001"}},{"type":"Feature","geometry":{"type":"Point","coordinates":[77.6089765,12.9936251]},"properties":{"species":"Pongamia Pinnata (L.) Pierre","ward":"78","tree_id":"GN8035NI0UEA001"}},{"type":"Feature","geometry":{"type":"Point","coordinates":[77.6089095,12.9936441]},"properties":{"species":"Thespesia Populnea","ward":"78","tree_id":"GN8035NI0UCJ001"}},{"type":"Feature","geometry":{"type":"Point","coordinates":[77.6088725,12.9936191]},"properties":{"species":"Markhamia Lutea (Benth.) K.Schum","ward":"78","tree_id":"GN8035NI0PVN001"}},{"type":"Feature","geometry":{"type":"Point","coordinates":[77.6088775,12.9936491]},"properties":{"species":"Pongamia Pinnata (L.) Pierre","ward":"78","tree_id":"GN8035NI0UBJ001"}},{"type":"Feature","geometry":{"type":"Point","coordinates":[77.6088225,12.9936921]},"properties":{"species":"Markhamia Lutea (Benth.) K.Schum","ward":"78","tree_id":"GN8035MI9YJP001"}},{"type":"Feature","geometry":{"type":"Point","coordinates":[77.6088335,12.9936771]},"properties":{"species":"Spathodea Campanulata P. Beauv","ward":"78","tree_id":"GN8035NI0UFF001"}},{"type":"Feature","geometry":{"type":"Point","coordinates":[77.6088465,12.9936741]},"properties":{"species":"Thespesia Populnea","ward":"78","tree_id":"GN8035NI0UFG001"}},{"type":"Feature","geometry":{"type":"Point","coordinates":[77.6088165,12.9937111]},"properties":{"species":"Markhamia Lutea (Benth.) K.Schum","ward":"78","tree_id":"GN8035MI9YOH001"}},{"type":"Feature","geometry":{"type":"Point","coordinates":[77.6088015,12.9937491]},"properties":{"species":"Saraca Asoca (Roxb.) De Wilde","ward":"78","tree_id":"GN8035MI9YTF001"}},{"type":"Feature","geometry":{"type":"Point","coordinates":[77.6087725,12.9937561]},"properties":{"species":"Saraca Asoca (Roxb.) De Wilde","ward":"78","tree_id":"GN8035MI9YSK001"}},{"type":"Feature","geometry":{"type":"Point","coordinates":[77.6087495,12.9937291]},"properties":{"species":"Saraca Asoca (Roxb.) De Wilde","ward":"78","tree_id":"GN8035MI9YMP001"}},{"type":"Feature","geometry":{"type":"Point","coordinates":[77.6087095,12.9937851]},"properties":{"species":"Saraca Asoca (Roxb.) De Wilde","ward":"78","tree_id":"GN8035MI9YVH001"}},{"type":"Feature","geometry":{"type":"Point","coordinates":[77.6087435,12.9937861]},"properties":{"species":"Millingtonia Hortensis L.F","ward":"78","tree_id":"GN8035MI9YWH001"}},{"type":"Feature","geometry":{"type":"Point","coordinates":[77.6086455,12.9938871]},"properties":{"species":"Cassia Javanica L.","ward":"78","tree_id":"GN8035MJ9EKA001"}},{"type":"Feature","geometry":{"type":"Point","coordinates":[77.6086845,12.9938381]},"properties":{"species":"Saraca Asoca (Roxb.) De Wilde","ward":"78","tree_id":"GN8035MJ9EBM001"}},{"type":"Feature","geometry":{"type":"Point","coordinates":[77.6086265,12.9938811]},"properties":{"species":"Saraca Asoca (Roxb.) De Wilde","ward":"78","tree_id":"GN8035MJ9DOC001"}},{"type":"Feature","geometry":{"type":"Point","coordinates":[77.6099695,12.9933391]},"properties":{"species":"Samanea Saman (Jacq.) Merr.","ward":"78","tree_id":"GN8035NI1LLE001"}},{"type":"Feature","geometry":{"type":"Point","coordinates":[77.6099545,12.9931861]},"properties":{"species":"Samanea Saman (Jacq.) Merr.","ward":"78","tree_id":"GN8035NI1GPD001"}},{"type":"Feature","geometry":{"type":"Point","coordinates":[77.6094115,12.9936991]},"properties":{"species":"Samanea Saman (Jacq.) Merr.","ward":"78","tree_id":"GN8035NI0XKD001"}},{"type":"Feature","geometry":{"type":"Point","coordinates":[77.6094645,12.9936461]},"properties":{"species":"Tabebuia Rosea (Bertol) Dc.","ward":"78","tree_id":"GN8035NI0XCN001"}},{"type":"Feature","geometry":{"type":"Point","coordinates":[77.6094445,12.9936131]},"properties":{"species":"Tabebuia Rosea (Bertol) Dc.","ward":"78","tree_id":"GN8035NI0SVP001"}},{"type":"Feature","geometry":{"type":"Point","coordinates":[77.6094305,12.9935991]},"properties":{"species":"Enterolobium Contortisiliqum (Vell.)","ward":"78","tree_id":"GN8035NI0SVG001"}},{"type":"Feature","geometry":{"type":"Point","coordinates":[77.6094845,12.9935981]},"properties":{"species":"Enterolobium Contortisiliqum (Vell.)","ward":"78","tree_id":"GN8035NI0SWH001"}},{"type":"Feature","geometry":{"type":"Point","coordinates":[77.6095245,12.9935741]},"properties":{"species":"Tabebuia Rosea (Bertol) Dc.","ward":"78","tree_id":"GN8035NI0STM001"}},{"type":"Feature","geometry":{"type":"Point","coordinates":[77.6095075,12.9935701]},"properties":{"species":"Spathodea Campanulata P. Beauv","ward":"78","tree_id":"GN8035NI0SSK001"}},{"type":"Feature","geometry":{"type":"Point","coordinates":[77.6094765,12.9935761]},"properties":{"species":"Spathodea Campanulata P. Beauv","ward":"78","tree_id":"GN8035NI0SRP001"}},{"type":"Feature","geometry":{"type":"Point","coordinates":[77.6094895,12.9935811]},"properties":{"species":"Pongamia Pinnata (L.) Pierre","ward":"78","tree_id":"GN8035NI0SSM001"}},{"type":"Feature","geometry":{"type":"Point","coordinates":[77.6095195,12.9936201]},"properties":{"species":"Spathodea Campanulata P. Beauv","ward":"78","tree_id":"GN8035NI0XDD001"}},{"type":"Feature","geometry":{"type":"Point","coordinates":[77.6095295,12.9936361]},"properties":{"species":"Spathodea Campanulata P. Beauv","ward":"78","tree_id":"GN8035NI0XEI001"}},{"type":"Feature","geometry":{"type":"Point","coordinates":[77.6095565,12.9936491]},"properties":{"species":"Tabebuia Rosea (Bertol) Dc.","ward":"78","tree_id":"GN8035NI0XEP001"}},{"type":"Feature","geometry":{"type":"Point","coordinates":[77.6095375,12.9936851]},"properties":{"species":"Tabebuia Rosea (Bertol) Dc.","ward":"78","tree_id":"GN8035NI0XJN001"}},{"type":"Feature","geometry":{"type":"Point","coordinates":[77.6095025,12.9936491]},"properties":{"species":"Enterolobium Contortisiliqum (Vell.)","ward":"78","tree_id":"GN8035NI0XDN001"}},{"type":"Feature","geometry":{"type":"Point","coordinates":[77.6094655,12.9936561]},"properties":{"species":"Tabebuia Rosea (Bertol) Dc.","ward":"78","tree_id":"GN8035NI0XHB001"}},{"type":"Feature","geometry":{"type":"Point","coordinates":[77.6094735,12.9936561]},"properties":{"species":"Pongamia Pinnata (L.) Pierre","ward":"78","tree_id":"GN8035NI0XHC001"}},{"type":"Feature","geometry":{"type":"Point","coordinates":[77.6094775,12.9936561]},"properties":{"species":"Pongamia Pinnata (L.) Pierre","ward":"78","tree_id":"GN8035NI0XHD001"}},{"type":"Feature","geometry":{"type":"Point","coordinates":[77.6094665,12.9936571]},"properties":{"species":"Tabebuia Rosea (Bertol) Dc.","ward":"78","tree_id":"GN8035NI0XHB002"}},{"type":"Feature","geometry":{"type":"Point","coordinates":[77.6095145,12.9935411]},"properties":{"species":"Tabebuia Rosea (Bertol) Dc.","ward":"78","tree_id":"GN8035NI0SNP001"}},{"type":"Feature","geometry":{"type":"Point","coordinates":[77.6095325,12.9935371]},"properties":{"species":"Spathodea Campanulata P. Beauv","ward":"78","tree_id":"GN8035NI0SON001"}},{"type":"Feature","geometry":{"type":"Point","coordinates":[77.6095275,12.9934531]},"properties":{"species":"Enterolobium Contortisiliqum (Vell.)","ward":"78","tree_id":"GN8035NI0SEE001"}},{"type":"Feature","geometry":{"type":"Point","coordinates":[77.6095475,12.9934201]},"properties":{"species":"Tabebuia Rosea (Bertol) Dc.","ward":"78","tree_id":"GN8035NI0NYK001"}},{"type":"Feature","geometry":{"type":"Point","coordinates":[77.6095435,12.9932731]},"properties":{"species":"Mangifera Indica L.","ward":"78","tree_id":"GN8035NI0NEG001"}},{"type":"Feature","geometry":{"type":"Point","coordinates":[77.6095425,12.9933901]},"properties":{"species":"Roystonea Regia (H.B.K) O. F. Cook","ward":"78","tree_id":"GN8035NI0NTK001"}},{"type":"Feature","geometry":{"type":"Point","coordinates":[77.6095245,12.9933511]},"properties":{"species":"Ptychosperma Macarthuri Nichols","ward":"78","tree_id":"GN8035NI0NOI001"}},{"type":"Feature","geometry":{"type":"Point","coordinates":[77.6095415,12.9933471]},"properties":{"species":"Ptychosperma Macarthuri Nichols","ward":"78","tree_id":"GN8035NI0NOK001"}},{"type":"Feature","geometry":{"type":"Point","coordinates":[77.6095405,12.9933471]},"properties":{"species":"Ptychosperma Macarthuri Nichols","ward":"78","tree_id":"GN8035NI0NOK002"}},{"type":"Feature","geometry":{"type":"Point","coordinates":[77.6095435,12.9933421]},"properties":{"species":"Ptychosperma Macarthuri Nichols","ward":"78","tree_id":"GN8035NI0NOG001"}},{"type":"Feature","geometry":{"type":"Point","coordinates":[77.6095505,12.9933311]},"properties":{"species":"Ptychosperma Macarthuri Nichols","ward":"78","tree_id":"GN8035NI0NOD001"}},{"type":"Feature","geometry":{"type":"Point","coordinates":[77.6095845,12.9933061]},"properties":{"species":"Averrhoa Carambola L.","ward":"78","tree_id":"GN8035NI0OFH001"}},{"type":"Feature","geometry":{"type":"Point","coordinates":[77.6095815,12.9934071]},"properties":{"species":"Spathodea Campanulata P. Beauv","ward":"78","tree_id":"GN8035NI0OUC001"}},{"type":"Feature","geometry":{"type":"Point","coordinates":[77.6096295,12.9934391]},"properties":{"species":"Pongamia Pinnata (L.) Pierre","ward":"78","tree_id":"GN8035NI0TBD001"}},{"type":"Feature","geometry":{"type":"Point","coordinates":[77.6096145,12.9935241]},"properties":{"species":"Enterolobium Contortisiliqum (Vell.)","ward":"78","tree_id":"GN8035NI0TLG001"}},{"type":"Feature","geometry":{"type":"Point","coordinates":[77.6096125,12.9935211]},"properties":{"species":"Pongamia Pinnata (L.) Pierre","ward":"78","tree_id":"GN8035NI0TLF001"}},{"type":"Feature","geometry":{"type":"Point","coordinates":[77.6096405,12.9934821]},"properties":{"species":"Ptychosperma Macarthuri Nichols","ward":"78","tree_id":"GN8035NI0THE001"}},{"type":"Feature","geometry":{"type":"Point","coordinates":[77.6096295,12.9934831]},"properties":{"species":"Ptychosperma Macarthuri Nichols","ward":"78","tree_id":"GN8035NI0TGH001"}},{"type":"Feature","geometry":{"type":"Point","coordinates":[77.6096735,12.9935691]},"properties":{"species":"Pongamia Pinnata (L.) Pierre","ward":"78","tree_id":"GN8035NI0TSI001"}},{"type":"Feature","geometry":{"type":"Point","coordinates":[77.6097115,12.9935571]},"properties":{"species":"Spathodea Campanulata P. Beauv","ward":"78","tree_id":"GN8035NI0TTE001"}},{"type":"Feature","geometry":{"type":"Point","coordinates":[77.6097375,12.9935291]},"properties":{"species":"Enterolobium Contortisiliqum (Vell.)","ward":"78","tree_id":"GN8035NI0TOL001"}},{"type":"Feature","geometry":{"type":"Point","coordinates":[77.6097095,12.9935791]},"properties":{"species":"Enterolobium Contortisiliqum (Vell.)","ward":"78","tree_id":"GN8035NI0TYA001"}},{"type":"Feature","geometry":{"type":"Point","coordinates":[77.6097175,12.9936261]},"properties":{"species":"Pongamia Pinnata (L.) Pierre","ward":"78","tree_id":"GN8035NI0YEF001"}},{"type":"Feature","geometry":{"type":"Point","coordinates":[77.6097265,12.9936321]},"properties":{"species":"Pongamia Pinnata (L.) Pierre","ward":"78","tree_id":"GN8035NI0YEG001"}},{"type":"Feature","geometry":{"type":"Point","coordinates":[77.6097855,12.9936471]},"properties":{"species":"Samanea Saman (Jacq.) Merr.","ward":"78","tree_id":"GN8035NI1UBM001"}},{"type":"Feature","geometry":{"type":"Point","coordinates":[77.6098475,12.9936311]},"properties":{"species":"Ptychosperma Macarthuri Nichols","ward":"78","tree_id":"GN8035NI1UCH001"}},{"type":"Feature","geometry":{"type":"Point","coordinates":[77.6098775,12.9936601]},"properties":{"species":"Ptychosperma Macarthuri Nichols","ward":"78","tree_id":"GN8035NI1UIG001"}},{"type":"Feature","geometry":{"type":"Point","coordinates":[77.6098855,12.9936631]},"properties":{"species":"Ptychosperma Macarthuri Nichols","ward":"78","tree_id":"GN8035NI1UIH001"}},{"type":"Feature","geometry":{"type":"Point","coordinates":[77.6098655,12.9936221]},"properties":{"species":"Ptychosperma Macarthuri Nichols","ward":"78","tree_id":"GN8035NI1UDB001"}},{"type":"Feature","geometry":{"type":"Point","coordinates":[77.6098795,12.9936521]},"properties":{"species":"Ptychosperma Macarthuri Nichols","ward":"78","tree_id":"GN8035NI1UIC001"}},{"type":"Feature","geometry":{"type":"Point","coordinates":[77.6098795,12.9936521]},"properties":{"species":"Ptychosperma Macarthuri Nichols","ward":"78","tree_id":"GN8035NI1UIC002"}},{"type":"Feature","geometry":{"type":"Point","coordinates":[77.6099045,12.9936591]},"properties":{"species":"Ptychosperma Macarthuri Nichols","ward":"78","tree_id":"GN8035NI1UJF001"}},{"type":"Feature","geometry":{"type":"Point","coordinates":[77.6098305,12.9934831]},"properties":{"species":"Pongamia Pinnata (L.) Pierre","ward":"78","tree_id":"GN8035NI1PHF001"}},{"type":"Feature","geometry":{"type":"Point","coordinates":[77.6098465,12.9934981]},"properties":{"species":"Pongamia Pinnata (L.) Pierre","ward":"78","tree_id":"GN8035NI1PHP001"}},{"type":"Feature","geometry":{"type":"Point","coordinates":[77.6097835,12.9936501]},"properties":{"species":"Pongamia Pinnata (L.) Pierre","ward":"78","tree_id":"GN8035NI1UBM002"}},{"type":"Feature","geometry":{"type":"Point","coordinates":[77.6098095,12.9937281]},"properties":{"species":"Ptychosperma Macarthuri Nichols","ward":"78","tree_id":"GN8035NI1UQD001"}},{"type":"Feature","geometry":{"type":"Point","coordinates":[77.6098785,12.9935721]},"properties":{"species":"Ptychosperma Macarthuri Nichols","ward":"78","tree_id":"GN8035NI1PSO001"}},{"type":"Feature","geometry":{"type":"Point","coordinates":[77.6098185,12.9937001]},"properties":{"species":"Spathodea Campanulata P. Beauv","ward":"78","tree_id":"GN8035NI1UME001"}},{"type":"Feature","geometry":{"type":"Point","coordinates":[77.6098805,12.9936971]},"properties":{"species":"Ptychosperma Macarthuri Nichols","ward":"78","tree_id":"GN8035NI1UNG001"}},{"type":"Feature","geometry":{"type":"Point","coordinates":[77.6098605,12.9936911]},"properties":{"species":"Ptychosperma Macarthuri Nichols","ward":"78","tree_id":"GN8035NI1UNA001"}},{"type":"Feature","geometry":{"type":"Point","coordinates":[77.6096625,12.9937831]},"properties":{"species":"Ailanthus Triphysa (Dennst.) Alston","ward":"78","tree_id":"GN8035NI0YWK001"}},{"type":"Feature","geometry":{"type":"Point","coordinates":[77.6097915,12.9937531]},"properties":{"species":"Spathodea Campanulata P. Beauv","ward":"78","tree_id":"GN8035NI1UQN001"}},{"type":"Feature","geometry":{"type":"Point","coordinates":[77.6098195,12.9937351]},"properties":{"species":"Enterolobium Contortisiliqum (Vell.)","ward":"78","tree_id":"GN8035NI1URE001"}},{"type":"Feature","geometry":{"type":"Point","coordinates":[77.6098195,12.9937391]},"properties":{"species":"Mimusops Elengi L.","ward":"78","tree_id":"GN8035NI1URE002"}},{"type":"Feature","geometry":{"type":"Point","coordinates":[77.6097845,12.9937431]},"properties":{"species":"Pongamia Pinnata (L.) Pierre","ward":"78","tree_id":"GN8035NI1UQI001"}},{"type":"Feature","geometry":{"type":"Point","coordinates":[77.6097155,12.9938021]},"properties":{"species":"Pongamia Pinnata (L.) Pierre","ward":"78","tree_id":"GN8035NJ0EEA001"}},{"type":"Feature","geometry":{"type":"Point","coordinates":[77.6093085,12.9936981]},"properties":{"species":"Tabebuia Rosea (Bertol) Dc.","ward":"78","tree_id":"GN8035NI0WNA001"}},{"type":"Feature","geometry":{"type":"Point","coordinates":[77.6093285,12.9936571]},"properties":{"species":"Pongamia Pinnata (L.) Pierre","ward":"78","tree_id":"GN8035NI0WIC001"}},{"type":"Feature","geometry":{"type":"Point","coordinates":[77.6093195,12.9936631]},"properties":{"species":"Pongamia Pinnata (L.) Pierre","ward":"78","tree_id":"GN8035NI0WIB001"}},{"type":"Feature","geometry":{"type":"Point","coordinates":[77.6093675,12.9935951]},"properties":{"species":"Pongamia Pinnata (L.) Pierre","ward":"78","tree_id":"GN8035NI0RYH001"}},{"type":"Feature","geometry":{"type":"Point","coordinates":[77.6093715,12.9935631]},"properties":{"species":"Mimusops Elengi L.","ward":"78","tree_id":"GN8035NI0RTH001"}},{"type":"Feature","geometry":{"type":"Point","coordinates":[77.6093585,12.9934861]},"properties":{"species":"Pongamia Pinnata (L.) Pierre","ward":"78","tree_id":"GN8035NI0RJG001"}},{"type":"Feature","geometry":{"type":"Point","coordinates":[77.6093855,12.9934871]},"properties":{"species":"Pongamia Pinnata (L.) Pierre","ward":"78","tree_id":"GN8035NI0SFF001"}},{"type":"Feature","geometry":{"type":"Point","coordinates":[77.6094135,12.9934531]},"properties":{"species":"Mangifera Indica L.","ward":"78","tree_id":"GN8035NI0SBE001"}},{"type":"Feature","geometry":{"type":"Point","coordinates":[77.6094435,12.9934181]},"properties":{"species":"Spathodea Campanulata P. Beauv","ward":"78","tree_id":"GN8035NI0NVH001"}},{"type":"Feature","geometry":{"type":"Point","coordinates":[77.6095145,12.9933101]},"properties":{"species":"Spathodea Campanulata P. Beauv","ward":"78","tree_id":"GN8035NI0NIL001"}},{"type":"Feature","geometry":{"type":"Point","coordinates":[77.6095225,12.9932831]},"properties":{"species":"Saraca Asoca (Roxb.) De Wilde","ward":"78","tree_id":"GN8035NI0NEM001"}},{"type":"Feature","geometry":{"type":"Point","coordinates":[77.6095355,12.9932541]},"properties":{"species":"Pongamia Pinnata (L.) Pierre","ward":"78","tree_id":"GN8035NI0IYN001"}},{"type":"Feature","geometry":{"type":"Point","coordinates":[77.6095855,12.9931321]},"properties":{"species":"Pongamia Pinnata (L.) Pierre","ward":"78","tree_id":"GN8035NI0JFL001"}},{"type":"Feature","geometry":{"type":"Point","coordinates":[77.6094015,12.9932521]},"properties":{"species":"Samanea Saman (Jacq.) Merr.","ward":"78","tree_id":"GN8035NI0IUP001"}},{"type":"Feature","geometry":{"type":"Point","coordinates":[77.6093635,12.9932901]},"properties":{"species":"Mimusops Elengi L.","ward":"78","tree_id":"GN8035NI0MEP001"}},{"type":"Feature","geometry":{"type":"Point","coordinates":[77.6093425,12.9934001]},"properties":{"species":"Tabebuia Rosea (Bertol) Dc.","ward":"78","tree_id":"GN8035NI0MTM001"}},{"type":"Feature","geometry":{"type":"Point","coordinates":[77.6092855,12.9934251]},"properties":{"species":"Spathodea Campanulata P. Beauv","ward":"78","tree_id":"GN8035NI0MWK001"}},{"type":"Feature","geometry":{"type":"Point","coordinates":[77.6092485,12.9933901]},"properties":{"species":"Tabebuia Rosea (Bertol) Dc.","ward":"78","tree_id":"GN8035NI0MQK001"}},{"type":"Feature","geometry":{"type":"Point","coordinates":[77.6092345,12.9934031]},"properties":{"species":"Pongamia Pinnata (L.) Pierre","ward":"78","tree_id":"GN8035NI0MQM001"}},{"type":"Feature","geometry":{"type":"Point","coordinates":[77.6093515,12.9935111]},"properties":{"species":"Pongamia Pinnata (L.) Pierre","ward":"78","tree_id":"GN8035NI0ROB001"}},{"type":"Feature","geometry":{"type":"Point","coordinates":[77.6093455,12.9934501]},"properties":{"species":"Samanea Saman (Jacq.) Merr.","ward":"78","tree_id":"GN8035NI0REE001"}},{"type":"Feature","geometry":{"type":"Point","coordinates":[77.6093245,12.9934011]},"properties":{"species":"Spathodea Campanulata P. Beauv","ward":"78","tree_id":"GN8035NI0MSO001"}},{"type":"Feature","geometry":{"type":"Point","coordinates":[77.6092415,12.9934541]},"properties":{"species":"Pongamia Pinnata (L.) Pierre","ward":"78","tree_id":"GN8035NI0RBF001"}},{"type":"Feature","geometry":{"type":"Point","coordinates":[77.6091965,12.9934541]},"properties":{"species":"Spathodea Campanulata P. Beauv","ward":"78","tree_id":"GN8035NI0RAE001"}},{"type":"Feature","geometry":{"type":"Point","coordinates":[77.6092155,12.9935821]},"properties":{"species":"Spathodea Campanulata P. Beauv","ward":"78","tree_id":"GN8035NI0RPO001"}},{"type":"Feature","geometry":{"type":"Point","coordinates":[77.6092735,12.9935351]},"properties":{"species":"Tabebuia Rosea (Bertol) Dc.","ward":"78","tree_id":"GN8035NI0RMJ001"}},{"type":"Feature","geometry":{"type":"Point","coordinates":[77.6092825,12.9934991]},"properties":{"species":"Markhamia Lutea (Benth.) K.Schum","ward":"78","tree_id":"GN8035NI0RHK001"}},{"type":"Feature","geometry":{"type":"Point","coordinates":[77.6092495,12.9935611]},"properties":{"species":"Tabebuia Rosea (Bertol) Dc.","ward":"78","tree_id":"GN8035NI0RQG001"}},{"type":"Feature","geometry":{"type":"Point","coordinates":[77.6092665,12.9936381]},"properties":{"species":"Spathodea Campanulata P. Beauv","ward":"78","tree_id":"GN8035NI0WCI001"}},{"type":"Feature","geometry":{"type":"Point","coordinates":[77.6092275,12.9935551]},"properties":{"species":"Tabebuia Rosea (Bertol) Dc.","ward":"78","tree_id":"GN8035NI0RQA001"}},{"type":"Feature","geometry":{"type":"Point","coordinates":[77.6092785,12.9935351]},"properties":{"species":"Markhamia Lutea (Benth.) K.Schum","ward":"78","tree_id":"GN8035NI0RMJ002"}},{"type":"Feature","geometry":{"type":"Point","coordinates":[77.6091415,12.9935621]},"properties":{"species":"Spathodea Campanulata P. Beauv","ward":"78","tree_id":"GN8035NI0QSG001"}},{"type":"Feature","geometry":{"type":"Point","coordinates":[77.6090875,12.9935661]},"properties":{"species":"Tabebuia Rosea (Bertol) Dc.","ward":"78","tree_id":"GN8035NI0QRE001"}},{"type":"Feature","geometry":{"type":"Point","coordinates":[77.6092005,12.9935781]},"properties":{"species":"Spathodea Campanulata P. Beauv","ward":"78","tree_id":"GN8035NI0RPN001"}},{"type":"Feature","geometry":{"type":"Point","coordinates":[77.6090545,12.9935921]},"properties":{"species":"Spathodea Campanulata P. Beauv","ward":"78","tree_id":"GN8035NI0QVB001"}},{"type":"Feature","geometry":{"type":"Point","coordinates":[77.6091595,12.9936261]},"properties":{"species":"Ptychosperma Macarthuri Nichols","ward":"78","tree_id":"GN8035NI0VEA001"}},{"type":"Feature","geometry":{"type":"Point","coordinates":[77.6092165,12.9935041]},"properties":{"species":"Ptychosperma Macarthuri Nichols","ward":"78","tree_id":"GN8035NI0RFO001"}},{"type":"Feature","geometry":{"type":"Point","coordinates":[77.6092185,12.9934811]},"properties":{"species":"Ptychosperma Macarthuri Nichols","ward":"78","tree_id":"GN8035NI0RFD001"}},{"type":"Feature","geometry":{"type":"Point","coordinates":[77.6092345,12.9934411]},"properties":{"species":"Ptychosperma Macarthuri Nichols","ward":"78","tree_id":"GN8035NI0RBA001"}},{"type":"Feature","geometry":{"type":"Point","coordinates":[77.6092135,12.9934211]},"properties":{"species":"Ptychosperma Macarthuri Nichols","ward":"78","tree_id":"GN8035NI0MUG001"}},{"type":"Feature","geometry":{"type":"Point","coordinates":[77.6093055,12.9933781]},"properties":{"species":"Ptychosperma Macarthuri Nichols","ward":"78","tree_id":"GN8035NI0MSE001"}},{"type":"Feature","geometry":{"type":"Point","coordinates":[77.6093245,12.9933941]},"properties":{"species":"Ptychosperma Macarthuri Nichols","ward":"78","tree_id":"GN8035NI0MSO002"}},{"type":"Feature","geometry":{"type":"Point","coordinates":[77.6093535,12.9933931]},"properties":{"species":"Ptychosperma Macarthuri Nichols","ward":"78","tree_id":"GN8035NI0MTN001"}},{"type":"Feature","geometry":{"type":"Point","coordinates":[77.6092875,12.9933491]},"properties":{"species":"Ptychosperma Macarthuri Nichols","ward":"78","tree_id":"GN8035NI0MMK001"}},{"type":"Feature","geometry":{"type":"Point","coordinates":[77.6093535,12.9933381]},"properties":{"species":"Ptychosperma Macarthuri Nichols","ward":"78","tree_id":"GN8035NI0MOB001"}},{"type":"Feature","geometry":{"type":"Point","coordinates":[77.6093515,12.9933951]},"properties":{"species":"Ptychosperma Macarthuri Nichols","ward":"78","tree_id":"GN8035NI0MTN002"}},{"type":"Feature","geometry":{"type":"Point","coordinates":[77.6093475,12.9933851]},"properties":{"species":"Ptychosperma Macarthuri Nichols","ward":"78","tree_id":"GN8035NI0MTJ001"}},{"type":"Feature","geometry":{"type":"Point","coordinates":[77.6093395,12.9933961]},"properties":{"species":"Ptychosperma Macarthuri Nichols","ward":"78","tree_id":"GN8035NI0MTM002"}},{"type":"Feature","geometry":{"type":"Point","coordinates":[77.6093805,12.9933671]},"properties":{"species":"Ptychosperma Macarthuri Nichols","ward":"78","tree_id":"GN8035NI0NPA001"}},{"type":"Feature","geometry":{"type":"Point","coordinates":[77.6093825,12.9933631]},"properties":{"species":"Ptychosperma Macarthuri Nichols","ward":"78","tree_id":"GN8035NI0NKN001"}},{"type":"Feature","geometry":{"type":"Point","coordinates":[77.6093755,12.9933641]},"properties":{"species":"Ptychosperma Macarthuri Nichols","ward":"78","tree_id":"GN8035NI0NKM001"}},{"type":"Feature","geometry":{"type":"Point","coordinates":[77.6093505,12.9934181]},"properties":{"species":"Ptychosperma Macarthuri Nichols","ward":"78","tree_id":"GN8035NI0MYF001"}},{"type":"Feature","geometry":{"type":"Point","coordinates":[77.6094005,12.9933491]},"properties":{"species":"Ptychosperma Macarthuri Nichols","ward":"78","tree_id":"GN8035NI0NKL001"}},{"type":"Feature","geometry":{"type":"Point","coordinates":[77.6094635,12.9933061]},"properties":{"species":"Ptychosperma Macarthuri Nichols","ward":"78","tree_id":"GN8035NI0NHF001"}},{"type":"Feature","geometry":{"type":"Point","coordinates":[77.6093855,12.9933381]},"properties":{"species":"Ptychosperma Macarthuri Nichols","ward":"78","tree_id":"GN8035NI0NKB001"}},{"type":"Feature","geometry":{"type":"Point","coordinates":[77.6094545,12.9932771]},"properties":{"species":"Ptychosperma Macarthuri Nichols","ward":"78","tree_id":"GN8035NI0NCI001"}},{"type":"Feature","geometry":{"type":"Point","coordinates":[77.6094615,12.9932961]},"properties":{"species":"Ptychosperma Macarthuri Nichols","ward":"78","tree_id":"GN8035NI0NHB001"}},{"type":"Feature","geometry":{"type":"Point","coordinates":[77.6094965,12.9931911]},"properties":{"species":"Ptychosperma Macarthuri Nichols","ward":"78","tree_id":"GN8035NI0ISB001"}},{"type":"Feature","geometry":{"type":"Point","coordinates":[77.6094235,12.9933281]},"properties":{"species":"Ptychosperma Macarthuri Nichols","ward":"78","tree_id":"GN8035NI0NGN001"}},{"type":"Feature","geometry":{"type":"Point","coordinates":[77.6095105,12.9932051]},"properties":{"species":"Ptychosperma Macarthuri Nichols","ward":"78","tree_id":"GN8035NI0ISL001"}},{"type":"Feature","geometry":{"type":"Point","coordinates":[77.6094895,12.9932671]},"properties":{"species":"Ptychosperma Macarthuri Nichols","ward":"78","tree_id":"GN8035NI0NDE001"}},{"type":"Feature","geometry":{"type":"Point","coordinates":[77.6095085,12.9932101]},"properties":{"species":"Ptychosperma Macarthuri Nichols","ward":"78","tree_id":"GN8035NI0ISK001"}},{"type":"Feature","geometry":{"type":"Point","coordinates":[77.6094375,12.9932741]},"properties":{"species":"Ptychosperma Macarthuri Nichols","ward":"78","tree_id":"GN8035NI0NBH001"}},{"type":"Feature","geometry":{"type":"Point","coordinates":[77.6094785,12.9932491]},"properties":{"species":"Ptychosperma Macarthuri Nichols","ward":"78","tree_id":"GN8035NI0IWP001"}},{"type":"Feature","geometry":{"type":"Point","coordinates":[77.6094845,12.9932451]},"properties":{"species":"Ptychosperma Macarthuri Nichols","ward":"78","tree_id":"GN8035NI0IXI001"}},{"type":"Feature","geometry":{"type":"Point","coordinates":[77.6095205,12.9932041]},"properties":{"species":"Ptychosperma Macarthuri Nichols","ward":"78","tree_id":"GN8035NI0ITI001"}},{"type":"Feature","geometry":{"type":"Point","coordinates":[77.6094795,12.9932941]},"properties":{"species":"Ptychosperma Macarthuri Nichols","ward":"78","tree_id":"GN8035NI0NHD001"}},{"type":"Feature","geometry":{"type":"Point","coordinates":[77.6095365,12.9931871]},"properties":{"species":"Ptychosperma Macarthuri Nichols","ward":"78","tree_id":"GN8035NI0ITB001"}},{"type":"Feature","geometry":{"type":"Point","coordinates":[77.6095275,12.9931941]},"properties":{"species":"Ptychosperma Macarthuri Nichols","ward":"78","tree_id":"GN8035NI0ITF001"}},{"type":"Feature","geometry":{"type":"Point","coordinates":[77.6095735,12.9931331]},"properties":{"species":"Ptychosperma Macarthuri Nichols","ward":"78","tree_id":"GN8035NI0JFK001"}},{"type":"Feature","geometry":{"type":"Point","coordinates":[77.6094315,12.9933061]},"properties":{"species":"Ptychosperma Macarthuri Nichols","ward":"78","tree_id":"GN8035NI0NGG001"}},{"type":"Feature","geometry":{"type":"Point","coordinates":[77.6093395,12.9934251]},"properties":{"species":"Ptychosperma Macarthuri Nichols","ward":"78","tree_id":"GN8035NI0MYI001"}},{"type":"Feature","geometry":{"type":"Point","coordinates":[77.6096155,12.9931291]},"properties":{"species":"Ptychosperma Macarthuri Nichols","ward":"78","tree_id":"GN8035NI0JGK001"}},{"type":"Feature","geometry":{"type":"Point","coordinates":[77.6095515,12.9931011]},"properties":{"species":"Ptychosperma Macarthuri Nichols","ward":"78","tree_id":"GN8035NI0IEL001"}},{"type":"Feature","geometry":{"type":"Point","coordinates":[77.6096365,12.9931361]},"properties":{"species":"Ptychosperma Macarthuri Nichols","ward":"78","tree_id":"GN8035NI0JHI001"}},{"type":"Feature","geometry":{"type":"Point","coordinates":[77.6095915,12.9931201]},"properties":{"species":"Ptychosperma Macarthuri Nichols","ward":"78","tree_id":"GN8035NI0JGE001"}},{"type":"Feature","geometry":{"type":"Point","coordinates":[77.6096125,12.9931851]},"properties":{"species":"Ptychosperma Macarthuri Nichols","ward":"78","tree_id":"GN8035NI0JQC001"}},{"type":"Feature","geometry":{"type":"Point","coordinates":[77.6097445,12.9931471]},"properties":{"species":"Ptychosperma Macarthuri Nichols","ward":"78","tree_id":"GN8035NI1FKA001"}},{"type":"Feature","geometry":{"type":"Point","coordinates":[77.6095975,12.9931301]},"properties":{"species":"Ptychosperma Macarthuri Nichols","ward":"78","tree_id":"GN8035NI0JGI001"}},{"type":"Feature","geometry":{"type":"Point","coordinates":[77.6096905,12.9931071]},"properties":{"species":"Ptychosperma Macarthuri Nichols","ward":"78","tree_id":"GN8035NI0JDO001"}},{"type":"Feature","geometry":{"type":"Point","coordinates":[77.6095975,12.9931301]},"properties":{"species":"Ptychosperma Macarthuri Nichols","ward":"78","tree_id":"GN8035NI0JGI002"}},{"type":"Feature","geometry":{"type":"Point","coordinates":[77.6095695,12.9932111]},"properties":{"species":"Ptychosperma Macarthuri Nichols","ward":"78","tree_id":"GN8035NI0JPN001"}},{"type":"Feature","geometry":{"type":"Point","coordinates":[77.6095725,12.9931271]},"properties":{"species":"Ptychosperma Macarthuri Nichols","ward":"78","tree_id":"GN8035NI0JFF001"}},{"type":"Feature","geometry":{"type":"Point","coordinates":[77.6095975,12.9931301]},"properties":{"species":"Ptychosperma Macarthuri Nichols","ward":"78","tree_id":"GN8035NI0JGI003"}},{"type":"Feature","geometry":{"type":"Point","coordinates":[77.6095735,12.9931491]},"properties":{"species":"Ptychosperma Macarthuri Nichols","ward":"78","tree_id":"GN8035NI0JKC001"}},{"type":"Feature","geometry":{"type":"Point","coordinates":[77.6095975,12.9931301]},"properties":{"species":"Ptychosperma Macarthuri Nichols","ward":"78","tree_id":"GN8035NI0JGI004"}},{"type":"Feature","geometry":{"type":"Point","coordinates":[77.6096335,12.9931451]},"properties":{"species":"Ptychosperma Macarthuri Nichols","ward":"78","tree_id":"GN8035NI0JHM001"}},{"type":"Feature","geometry":{"type":"Point","coordinates":[77.6096365,12.9931201]},"properties":{"species":"Ptychosperma Macarthuri Nichols","ward":"78","tree_id":"GN8035NI0JHE001"}},{"type":"Feature","geometry":{"type":"Point","coordinates":[77.6095985,12.9931291]},"properties":{"species":"Ptychosperma Macarthuri Nichols","ward":"78","tree_id":"GN8035NI0JGI005"}},{"type":"Feature","geometry":{"type":"Point","coordinates":[77.6096485,12.9930951]},"properties":{"species":"Ptychosperma Macarthuri Nichols","ward":"78","tree_id":"GN8035NI0JCK001"}},{"type":"Feature","geometry":{"type":"Point","coordinates":[77.6095985,12.9931021]},"properties":{"species":"Ptychosperma Macarthuri Nichols","ward":"78","tree_id":"GN8035NI0JBM001"}},{"type":"Feature","geometry":{"type":"Point","coordinates":[77.6096435,12.9931351]},"properties":{"species":"Ptychosperma Macarthuri Nichols","ward":"78","tree_id":"GN8035NI0JHJ001"}},{"type":"Feature","geometry":{"type":"Point","coordinates":[77.6096165,12.9930931]},"properties":{"species":"Ptychosperma Macarthuri Nichols","ward":"78","tree_id":"GN8035NI0JBK001"}},{"type":"Feature","geometry":{"type":"Point","coordinates":[77.6096035,12.9931281]},"properties":{"species":"Ptychosperma Macarthuri Nichols","ward":"78","tree_id":"GN8035NI0JGF001"}},{"type":"Feature","geometry":{"type":"Point","coordinates":[77.6096255,12.9931091]},"properties":{"species":"Ptychosperma Macarthuri Nichols","ward":"78","tree_id":"GN8035NI0JBP001"}},{"type":"Feature","geometry":{"type":"Point","coordinates":[77.6096865,12.9931171]},"properties":{"species":"Ptychosperma Macarthuri Nichols","ward":"78","tree_id":"GN8035NI0JIC001"}},{"type":"Feature","geometry":{"type":"Point","coordinates":[77.6096325,12.9929621]},"properties":{"species":"Ptychosperma Macarthuri Nichols","ward":"78","tree_id":"GN8035NI0EHM001"}},{"type":"Feature","geometry":{"type":"Point","coordinates":[77.6096115,12.9931491]},"properties":{"species":"Ptychosperma Macarthuri Nichols","ward":"78","tree_id":"GN8035NI0JLC001"}},{"type":"Feature","geometry":{"type":"Point","coordinates":[77.6097145,12.9929521]},"properties":{"species":"Ptychosperma Macarthuri Nichols","ward":"78","tree_id":"GN8035NI0EJJ001"}},{"type":"Feature","geometry":{"type":"Point","coordinates":[77.6096925,12.9930021]},"properties":{"species":"Ptychosperma Macarthuri Nichols","ward":"78","tree_id":"GN8035NI0ESD001"}},{"type":"Feature","geometry":{"type":"Point","coordinates":[77.6096605,12.9929771]},"properties":{"species":"Ptychosperma Macarthuri Nichols","ward":"78","tree_id":"GN8035NI0EMH001"}},{"type":"Feature","geometry":{"type":"Point","coordinates":[77.6097265,12.9929381]},"properties":{"species":"Ptychosperma Macarthuri Nichols","ward":"78","tree_id":"GN8035NI0EJG001"}},{"type":"Feature","geometry":{"type":"Point","coordinates":[77.6097015,12.9929451]},"properties":{"species":"Ptychosperma Macarthuri Nichols","ward":"78","tree_id":"GN8035NI0EJE001"}},{"type":"Feature","geometry":{"type":"Point","coordinates":[77.6098215,12.9929531]},"properties":{"species":"Ptychosperma Macarthuri Nichols","ward":"78","tree_id":"GN8035NI1AHJ001"}},{"type":"Feature","geometry":{"type":"Point","coordinates":[77.6097175,12.9929281]},"properties":{"species":"Ptychosperma Macarthuri Nichols","ward":"78","tree_id":"GN8035NI0EEN001"}},{"type":"Feature","geometry":{"type":"Point","coordinates":[77.6097885,12.9929561]},"properties":{"species":"Ptychosperma Macarthuri Nichols","ward":"78","tree_id":"GN8035NI1AGN001"}},{"type":"Feature","geometry":{"type":"Point","coordinates":[77.6097315,12.9929331]},"properties":{"species":"Enterolobium Contortisiliqum (Vell.)","ward":"78","tree_id":"GN8035NI0EJD001"}},{"type":"Feature","geometry":{"type":"Point","coordinates":[77.6097795,12.9929671]},"properties":{"species":"Ptychosperma Macarthuri Nichols","ward":"78","tree_id":"GN8035NI1ALA001"}},{"type":"Feature","geometry":{"type":"Point","coordinates":[77.6088885,12.9936891]},"properties":{"species":"Ptychosperma Macarthuri Nichols","ward":"78","tree_id":"GN8035NI0UGP001"}},{"type":"Feature","geometry":{"type":"Point","coordinates":[77.6087955,12.9937761]},"properties":{"species":"Ptychosperma Macarthuri Nichols","ward":"78","tree_id":"GN8035MI9YYA001"}},{"type":"Feature","geometry":{"type":"Point","coordinates":[77.6087625,12.9937991]},"properties":{"species":"Ptychosperma Macarthuri Nichols","ward":"78","tree_id":"GN8035MI9YXN001"}},{"type":"Feature","geometry":{"type":"Point","coordinates":[77.6086845,12.9938741]},"properties":{"species":"Ptychosperma Macarthuri Nichols","ward":"78","tree_id":"GN8035MJ9EGM001"}},{"type":"Feature","geometry":{"type":"Point","coordinates":[77.6086665,12.9938981]},"properties":{"species":"Ptychosperma Macarthuri Nichols","ward":"78","tree_id":"GN8035MJ9EKK001"}},{"type":"Feature","geometry":{"type":"Point","coordinates":[77.6086355,12.9938931]},"properties":{"species":"Markhamia Lutea (Benth.) K.Schum","ward":"78","tree_id":"GN8035MJ9DOH001"}},{"type":"Feature","geometry":{"type":"Point","coordinates":[77.6086245,12.9939401]},"properties":{"species":"Saraca Asoca (Roxb.) De Wilde","ward":"78","tree_id":"GN8035MJ9DTK001"}},{"type":"Feature","geometry":{"type":"Point","coordinates":[77.6086465,12.9939141]},"properties":{"species":"Saraca Asoca (Roxb.) De Wilde","ward":"78","tree_id":"GN8035MJ9EKM001"}}]}