{"type":"FeatureCollection","features":[{"type":"Feature","properties":{"name":"Yeshwantpur\u2013KR Puram Elevated Corridor: Project Boundary (Environmental Clearance)"},"geometry":{"type":"Polygon","coordinates":[[[77.568943,13.014309],[77.569165,13.014284],[77.569441,13.014296],[77.569539,13.014303],[77.569951,13.014331],[77.570909,13.014396],[77.571224,13.014418],[77.571307,13.014423],[77.571463,13.014434],[77.571751,13.014484],[77.57192,13.014513],[77.571924,13.014515],[77.573019,13.01459],[77.573162,13.0146],[77.574039,13.01466],[77.574455,13.014685],[77.57487,13.014704],[77.575286,13.014717],[77.575702,13.014724],[77.576119,13.014724],[77.576535,13.014719],[77.577877,13.014691],[77.577907,13.01469],[77.578247,13.014686],[77.578647,13.014685],[77.578664,13.014685],[77.578742,13.014685],[77.578814,13.014684],[77.579135,13.014683],[77.579443,13.01468],[77.579752,13.014672],[77.58006,13.014658],[77.58135,13.01459],[77.582157,13.014548],[77.583163,13.014495],[77.583248,13.014491],[77.58336,13.014485],[77.583396,13.01448],[77.583431,13.01447],[77.583464,13.014454],[77.583494,13.014433],[77.58352,13.014407],[77.583541,13.014378],[77.583558,13.014346],[77.58358,13.014299],[77.583608,13.014255],[77.58364,13.014215],[77.583678,13.014179],[77.58372,13.014147],[77.583765,13.014121],[77.583813,13.0141],[77.583863,13.014085],[77.583915,13.014075],[77.583967,13.014072],[77.584021,13.014075],[77.584074,13.014085],[77.584109,13.014095],[77.584125,13.0141],[77.584174,13.014122],[77.58422,13.014149],[77.584262,13.014182],[77.5843,13.014219],[77.584333,13.014261],[77.584361,13.014306],[77.58438,13.014336],[77.584405,13.014363],[77.584433,13.014386],[77.584698,13.01436],[77.584698,13.01436],[77.585279,13.014331],[77.585507,13.01432],[77.585666,13.014308],[77.585825,13.014291],[77.58585,13.014288],[77.585983,13.014268],[77.586062,13.014253],[77.58614,13.014238],[77.586296,13.014202],[77.58645,13.01416],[77.586472,13.014153],[77.586602,13.014112],[77.586752,13.014058],[77.5869,13.013999],[77.586915,13.013994],[77.587044,13.013956],[77.587139,13.013923],[77.587186,13.013907],[77.587199,13.013902],[77.5873,13.013864],[77.587319,13.013856],[77.587324,13.013855],[77.587335,13.013848],[77.587353,13.013838],[77.587369,13.013829],[77.587388,13.013819],[77.587496,13.013752],[77.587528,13.013733],[77.587603,13.013682],[77.587664,13.013641],[77.587796,13.013544],[77.587812,13.013532],[77.587911,13.013453],[77.587924,13.013442],[77.588016,13.013363],[77.588031,13.01335],[77.588048,13.013335],[77.588168,13.013223],[77.588184,13.013206],[77.588282,13.013107],[77.588307,13.013079],[77.588382,13.012996],[77.588392,13.012985],[77.588496,13.01286],[77.588596,13.012731],[77.588601,13.012723],[77.588607,13.012715],[77.588795,13.012459],[77.58881,13.012439],[77.588832,13.012408],[77.588977,13.012207],[77.589053,13.012097],[77.589069,13.012074],[77.589133,13.011982],[77.58914,13.011972],[77.589288,13.011755],[77.58934,13.011678],[77.589421,13.01156],[77.589453,13.011512],[77.589512,13.011426],[77.589536,13.01139],[77.589632,13.011251],[77.589645,13.011231],[77.589711,13.011134],[77.589781,13.011031],[77.589812,13.010986],[77.589881,13.010885],[77.589919,13.010829],[77.590047,13.010642],[77.590204,13.010411],[77.590219,13.010388],[77.590224,13.010382],[77.590291,13.010283],[77.590344,13.010206],[77.590491,13.00999],[77.590525,13.009939],[77.590534,13.009926],[77.590612,13.009811],[77.590654,13.009751],[77.590704,13.009676],[77.59073,13.009638],[77.590711,13.009577],[77.590726,13.009555],[77.590741,13.009532],[77.590757,13.00951],[77.590795,13.009454],[77.590806,13.009437],[77.590807,13.009436],[77.590837,13.009392],[77.59084,13.009388],[77.590851,13.009371],[77.590867,13.009349],[77.59087,13.009343],[77.590872,13.009341],[77.590894,13.009308],[77.590908,13.009287],[77.591021,13.009123],[77.591112,13.008989],[77.591117,13.008981],[77.591217,13.008833],[77.591288,13.008726],[77.591299,13.00871],[77.5913,13.008709],[77.591317,13.008684],[77.591329,13.008666],[77.59133,13.008664],[77.591345,13.008641],[77.591383,13.008583],[77.591396,13.008561],[77.591517,13.008376],[77.591561,13.008306],[77.591576,13.008283],[77.591713,13.008066],[77.591739,13.008025],[77.591749,13.008009],[77.591778,13.007963],[77.591841,13.007861],[77.591887,13.007787],[77.591925,13.007726],[77.59195,13.007686],[77.591954,13.007682],[77.591984,13.007645],[77.59201,13.007614],[77.592024,13.007597],[77.592186,13.007403],[77.592186,13.007403],[77.592192,13.007393],[77.592305,13.007212],[77.592333,13.007167],[77.592415,13.007035],[77.592516,13.006873],[77.592557,13.006808],[77.592625,13.006697],[77.592698,13.006577],[77.592717,13.006545],[77.592724,13.006532],[77.592803,13.00639],[77.59285,13.006299],[77.592867,13.006265],[77.592883,13.006233],[77.592959,13.006073],[77.592959,13.006072],[77.593012,13.00595],[77.593029,13.00591],[77.593093,13.005747],[77.593093,13.005745],[77.593121,13.005668],[77.593129,13.005644],[77.593152,13.005578],[77.593205,13.00541],[77.59321,13.005393],[77.593219,13.005361],[77.593248,13.005257],[77.593253,13.00524],[77.593288,13.005106],[77.593313,13.005008],[77.593329,13.00495],[77.593369,13.004798],[77.593385,13.004739],[77.593403,13.004673],[77.593482,13.004398],[77.5935,13.004338],[77.593503,13.00433],[77.593561,13.004137],[77.593565,13.004125],[77.593581,13.004075],[77.593671,13.003785],[77.593691,13.003723],[77.59377,13.00347],[77.593778,13.003445],[77.593852,13.003207],[77.59388,13.003117],[77.593963,13.002852],[77.593994,13.002753],[77.594075,13.002495],[77.594104,13.002402],[77.594107,13.002393],[77.594184,13.002146],[77.594191,13.002123],[77.594224,13.00202],[77.594273,13.001862],[77.594308,13.001749],[77.594379,13.001524],[77.594399,13.00146],[77.594476,13.001214],[77.594491,13.001166],[77.594576,13.000893],[77.594582,13.000874],[77.594671,13.000591],[77.594673,13.000584],[77.594805,13.000163],[77.594825,13.000097],[77.594897,12.999869],[77.594931,12.99976],[77.594997,12.999548],[77.595012,12.999499],[77.595076,12.999296],[77.595122,12.99915],[77.595167,12.999004],[77.595198,12.998905],[77.595261,12.998704],[77.595311,12.998544],[77.595359,12.998391],[77.595366,12.99837],[77.595387,12.998302],[77.595401,12.998258],[77.59545,12.998101],[77.595466,12.998051],[77.595467,12.998046],[77.595467,12.998041],[77.595479,12.997984],[77.59553,12.997734],[77.595557,12.997606],[77.595594,12.997469],[77.595601,12.997442],[77.59564,12.997277],[77.595672,12.997111],[77.595697,12.996944],[77.595746,12.996576],[77.595762,12.996455],[77.595836,12.995904],[77.595896,12.995452],[77.595944,12.995092],[77.596016,12.994555],[77.596023,12.994482],[77.596025,12.994465],[77.596027,12.994373],[77.596023,12.994282],[77.596012,12.994192],[77.595995,12.994102],[77.595972,12.994014],[77.595942,12.993927],[77.595906,12.993843],[77.595865,12.993762],[77.595823,12.993693],[77.595817,12.993683],[77.595764,12.993608],[77.595706,12.993537],[77.595636,12.993456],[77.595523,12.993327],[77.595484,12.993282],[77.595271,12.993039],[77.595175,12.992929],[77.594999,12.992727],[77.594885,12.992597],[77.594847,12.992553],[77.594531,12.992192],[77.594456,12.992107],[77.594495,12.992075],[77.59478,12.992401],[77.594802,12.992426],[77.594822,12.992448],[77.595288,12.992982],[77.59535,12.993053],[77.595712,12.993466],[77.595745,12.993504],[77.595805,12.993578],[77.59586,12.993656],[77.595909,12.993738],[77.595941,12.9938],[77.595952,12.993822],[77.595989,12.99391],[77.59602,12.994],[77.596044,12.994091],[77.596062,12.994184],[77.596073,12.994278],[77.596078,12.994373],[77.596075,12.994468],[77.596066,12.994562],[77.596056,12.994636],[77.596007,12.995004],[77.595902,12.995795],[77.595904,12.995783],[77.595927,12.995687],[77.595958,12.995594],[77.595995,12.995503],[77.596039,12.995415],[77.59609,12.99533],[77.596146,12.995249],[77.596209,12.995172],[77.596277,12.9951],[77.59635,12.995033],[77.596427,12.994972],[77.59651,12.994916],[77.596596,12.994866],[77.596685,12.994822],[77.596698,12.994817],[77.596778,12.994785],[77.596873,12.994754],[77.59697,12.99473],[77.597068,12.994713],[77.597168,12.994703],[77.597235,12.994702],[77.597268,12.994701],[77.597383,12.994657],[77.597483,12.994669],[77.597582,12.994688],[77.59768,12.994714],[77.597775,12.994747],[77.597905,12.994797],[77.598126,12.994877],[77.598349,12.994951],[77.598515,12.995002],[77.598574,12.99502],[77.598632,12.995035],[77.5988,12.995081],[77.599029,12.995136],[77.599529,12.995249],[77.599584,12.995264],[77.599639,12.995282],[77.599692,12.995303],[77.600045,12.995456],[77.60005,12.995458],[77.600061,12.995462],[77.600097,12.995477],[77.600189,12.995514],[77.600216,12.995525],[77.600291,12.995557],[77.600302,12.995562],[77.600373,12.995589],[77.600446,12.995609],[77.600521,12.995622],[77.600597,12.995629],[77.600673,12.995629],[77.600748,12.995622],[77.600823,12.995609],[77.601874,12.995368],[77.602224,12.995284],[77.602572,12.995194],[77.602918,12.995097],[77.603263,12.994993],[77.603605,12.994883],[77.603618,12.994879],[77.603945,12.994766],[77.604282,12.994643],[77.604432,12.994585],[77.604617,12.994513],[77.606614,12.993716],[77.60672,12.993674],[77.606736,12.993668],[77.606857,12.993622],[77.606981,12.993582],[77.607107,12.993548],[77.607234,12.993519],[77.607362,12.993496],[77.607491,12.993479],[77.607621,12.993468],[77.607674,12.993465],[77.607751,12.993462],[77.608065,12.993455],[77.608169,12.993453],[77.608195,12.993453],[77.608201,12.993453],[77.608208,12.993453],[77.608212,12.993452],[77.608229,12.993452],[77.608229,12.993452],[77.608301,12.993451],[77.608393,12.993442],[77.608484,12.993427],[77.608574,12.993406],[77.608662,12.993379],[77.608748,12.993345],[77.608831,12.993306],[77.608911,12.99326],[77.608987,12.99321],[77.609385,12.992925],[77.609584,12.992772],[77.609828,12.992588],[77.610074,12.992408],[77.610243,12.992289],[77.610324,12.992232],[77.610335,12.992225],[77.610814,12.991893],[77.610923,12.991821],[77.611037,12.991754],[77.611153,12.991692],[77.611272,12.991635],[77.611394,12.991584],[77.611518,12.991539],[77.611644,12.9915],[77.611771,12.991466],[77.611892,12.991437],[77.612291,12.991342],[77.612411,12.99131],[77.612529,12.991272],[77.612645,12.991227],[77.612758,12.991176],[77.612868,12.991119],[77.613261,12.990901],[77.614434,12.990252],[77.614555,12.990184],[77.614624,12.990144],[77.614812,12.990032],[77.615359,12.989694],[77.615403,12.989668],[77.615547,12.989581],[77.615737,12.989472],[77.615884,12.989393],[77.615931,12.989368],[77.616104,12.989278],[77.61613,12.989264],[77.616162,12.989247],[77.616214,12.98922],[77.616219,12.989217],[77.616226,12.989214],[77.616262,12.989195],[77.616268,12.989191],[77.616271,12.989189],[77.616276,12.989186],[77.616382,12.989126],[77.616429,12.989098],[77.616503,12.989054],[77.616515,12.989047],[77.616589,12.988999],[77.616644,12.988963],[77.616744,12.988894],[77.61677,12.988875],[77.616893,12.988782],[77.617012,12.988685],[77.617127,12.988583],[77.61718,12.988534],[77.617192,12.988522],[77.6172,12.988516],[77.617249,12.98847],[77.617263,12.988457],[77.617279,12.988442],[77.617282,12.98844],[77.617284,12.988438],[77.617319,12.988408],[77.617321,12.988407],[77.617482,12.988268],[77.617485,12.988266],[77.617565,12.988197],[77.617665,12.988113],[77.617714,12.988073],[77.617808,12.987999],[77.617867,12.987953],[77.618023,12.987838],[77.618163,12.98774],[77.618183,12.987727],[77.618192,12.987721],[77.618227,12.987698],[77.618346,12.987621],[77.618489,12.987534],[77.618512,12.98752],[77.618614,12.98746],[77.618617,12.987458],[77.618644,12.987443],[77.61865,12.987439],[77.618652,12.987438],[77.618963,12.987255],[77.618992,12.987236],[77.619018,12.987213],[77.619041,12.987187],[77.619044,12.987181],[77.61906,12.987158],[77.61912,12.987055],[77.619124,12.987048],[77.619129,12.987041],[77.619133,12.987034],[77.619134,12.987034],[77.619138,12.987028],[77.619143,12.987022],[77.619148,12.987016],[77.619154,12.98701],[77.619159,12.987004],[77.619165,12.986998],[77.61917,12.986992],[77.619176,12.986987],[77.619182,12.986982],[77.619188,12.986976],[77.619195,12.986971],[77.619201,12.986966],[77.619207,12.986961],[77.619214,12.986957],[77.619221,12.986952],[77.619225,12.986949],[77.619228,12.986947],[77.619234,12.986943],[77.619241,12.986939],[77.619249,12.986934],[77.619256,12.98693],[77.619263,12.986926],[77.61927,12.986922],[77.619278,12.986918],[77.619285,12.986914],[77.619293,12.986911],[77.619301,12.986907],[77.619308,12.986904],[77.619316,12.9869],[77.619324,12.986897],[77.619332,12.986894],[77.61934,12.986891],[77.619348,12.986888],[77.619357,12.986885],[77.619365,12.986882],[77.619372,12.98688],[77.619373,12.986879],[77.619381,12.986877],[77.61939,12.986874],[77.619398,12.986872],[77.619407,12.98687],[77.619415,12.986867],[77.619424,12.986865],[77.619432,12.986863],[77.619441,12.986862],[77.61945,12.98686],[77.619458,12.986858],[77.619467,12.986857],[77.619476,12.986855],[77.619484,12.986854],[77.619493,12.986853],[77.619502,12.986852],[77.61951,12.986851],[77.619519,12.98685],[77.619528,12.986849],[77.619536,12.986848],[77.619545,12.986848],[77.619554,12.986847],[77.619562,12.986847],[77.619571,12.986847],[77.619579,12.986847],[77.619588,12.986847],[77.619596,12.986847],[77.619605,12.986847],[77.619613,12.986848],[77.619622,12.986848],[77.61963,12.986849],[77.619639,12.98685],[77.619647,12.986851],[77.619655,12.986852],[77.619663,12.986853],[77.619671,12.986854],[77.61968,12.986855],[77.619688,12.986857],[77.619696,12.986859],[77.619704,12.986861],[77.619711,12.986863],[77.619719,12.986865],[77.619727,12.986867],[77.619735,12.98687],[77.619742,12.986872],[77.61975,12.986875],[77.619758,12.986878],[77.619765,12.986881],[77.619772,12.986884],[77.61978,12.986888],[77.619787,12.986892],[77.619794,12.986896],[77.619801,12.9869],[77.619808,12.986904],[77.619815,12.986909],[77.619821,12.986913],[77.619828,12.986918],[77.619834,12.986924],[77.619841,12.986929],[77.619847,12.986935],[77.619853,12.986941],[77.619857,12.986946],[77.619859,12.986948],[77.619864,12.986954],[77.619869,12.986961],[77.619874,12.986968],[77.619879,12.986976],[77.619884,12.986984],[77.619888,12.986992],[77.619891,12.987],[77.619894,12.987005],[77.619895,12.987008],[77.619901,12.987024],[77.619909,12.987041],[77.619929,12.987075],[77.619954,12.987105],[77.619982,12.987131],[77.620015,12.987153],[77.620022,12.987156],[77.62005,12.98717],[77.620088,12.987181],[77.620146,12.987196],[77.620341,12.987246],[77.620387,12.987258],[77.620538,12.987296],[77.620608,12.987312],[77.620636,12.987319],[77.620689,12.987328],[77.620736,12.987336],[77.620948,12.987366],[77.620951,12.987366],[77.621165,12.987397],[77.621331,12.987421],[77.621842,12.987494],[77.621913,12.987504],[77.62197,12.987509],[77.622028,12.987507],[77.622085,12.987497],[77.622095,12.987494],[77.62214,12.987481],[77.622193,12.987458],[77.622242,12.987429],[77.622287,12.987394],[77.622328,12.987354],[77.62236,12.987312],[77.622363,12.987309],[77.622392,12.98726],[77.622415,12.987208],[77.622431,12.987154],[77.62244,12.987098],[77.622442,12.987041],[77.622427,12.986585],[77.622415,12.986216],[77.622403,12.985831],[77.622401,12.985793],[77.622375,12.984957],[77.622368,12.984743],[77.622362,12.984579],[77.62236,12.984411],[77.622364,12.984242],[77.622368,12.984175],[77.622375,12.984074],[77.622391,12.983906],[77.622414,12.983738],[77.622443,12.983572],[77.622478,12.983407],[77.622558,12.983066],[77.622592,12.982908],[77.622601,12.982854],[77.622605,12.982833],[77.62262,12.98275],[77.622642,12.98259],[77.622658,12.98243],[77.622668,12.982269],[77.622674,12.98213],[77.622678,12.982079],[77.622688,12.982029],[77.622702,12.98198],[77.622721,12.981933],[77.622739,12.981887],[77.622752,12.981839],[77.622759,12.981791],[77.62276,12.981755],[77.622761,12.981741],[77.622757,12.981692],[77.622748,12.981644],[77.622741,12.981612],[77.622738,12.981579],[77.622738,12.981546],[77.622737,12.981498],[77.62273,12.98145],[77.622716,12.981404],[77.622695,12.98136],[77.622669,12.981319],[77.622638,12.981281],[77.622601,12.981249],[77.62253,12.981193],[77.622464,12.981137],[77.622402,12.981077],[77.622346,12.981013],[77.622294,12.980944],[77.622248,12.980872],[77.622207,12.980797],[77.622206,12.980794],[77.622173,12.980718],[77.622026,12.980352],[77.621904,12.980044],[77.621758,12.97968],[77.621722,12.979588],[77.621675,12.97947],[77.621668,12.979453],[77.621646,12.979406],[77.621613,12.979345],[77.621574,12.979287],[77.621531,12.979231],[77.621606,12.97917],[77.621654,12.979231],[77.621684,12.979276],[77.621697,12.979296],[77.621709,12.979317],[77.621734,12.979364],[77.621752,12.979404],[77.621766,12.979435],[77.621783,12.979478],[77.621801,12.979522],[77.621867,12.979689],[77.62203,12.980099],[77.622038,12.980117],[77.622071,12.980201],[77.622081,12.980225],[77.622085,12.980234],[77.622128,12.980344],[77.62215,12.980399],[77.622173,12.980455],[77.622227,12.980591],[77.622258,12.980669],[77.622264,12.980683],[77.622281,12.980723],[77.622295,12.980755],[77.622316,12.980794],[77.622327,12.980813],[77.622332,12.980824],[77.622375,12.98089],[77.622422,12.980953],[77.622428,12.980959],[77.622466,12.981003],[77.622474,12.981012],[77.62253,12.981067],[77.622543,12.981078],[77.622591,12.981118],[77.622602,12.981126],[77.622662,12.981174],[77.622703,12.981201],[77.622741,12.98122],[77.622747,12.981223],[77.622752,12.981225],[77.622793,12.981239],[77.622842,12.981248],[77.622878,12.981251],[77.622891,12.981251],[77.62294,12.981248],[77.622956,12.981244],[77.622988,12.981238],[77.623031,12.981229],[77.623035,12.981228],[77.623082,12.981225],[77.623129,12.981228],[77.623134,12.981229],[77.623176,12.981237],[77.623221,12.981253],[77.623263,12.981274],[77.623297,12.981298],[77.623302,12.981301],[77.623336,12.981333],[77.623344,12.981342],[77.623366,12.981369],[77.623388,12.981404],[77.623391,12.981409],[77.623392,12.981412],[77.623399,12.981428],[77.623403,12.981436],[77.623407,12.981444],[77.623411,12.981454],[77.623411,12.981454],[77.623412,12.981455],[77.623424,12.981481],[77.623448,12.981515],[77.62346,12.981528],[77.623476,12.981545],[77.623509,12.981571],[77.623521,12.981578],[77.623545,12.981591],[77.623584,12.981606],[77.623625,12.981614],[77.6237,12.981628],[77.623705,12.981629],[77.623755,12.981637],[77.62396,12.981673],[77.623982,12.981677],[77.624155,12.981707],[77.62416,12.981707],[77.624252,12.981722],[77.624391,12.981745],[77.624396,12.981746],[77.624435,12.981752],[77.624439,12.981753],[77.624488,12.98176],[77.624724,12.981793],[77.62501,12.981828],[77.625241,12.981851],[77.625297,12.981856],[77.626243,12.981941],[77.626363,12.981949],[77.626483,12.981951],[77.626603,12.981949],[77.626657,12.981945],[77.626723,12.98194],[77.626843,12.981927],[77.626932,12.981912],[77.626961,12.981908],[77.626972,12.98191],[77.627004,12.981905],[77.627086,12.981888],[77.627117,12.981882],[77.627323,12.981841],[77.627579,12.981846],[77.627681,12.981826],[77.628076,12.981748],[77.628704,12.981624],[77.629254,12.981515],[77.629412,12.981488],[77.629572,12.981466],[77.629732,12.981452],[77.629893,12.981444],[77.630054,12.981443],[77.630192,12.981448],[77.630215,12.981449],[77.630376,12.981461],[77.630593,12.981483],[77.630919,12.981515],[77.63105,12.981531],[77.631179,12.981555],[77.631307,12.981585],[77.631434,12.981623],[77.631558,12.981667],[77.631589,12.98168],[77.631679,12.981717],[77.631759,12.981756],[77.631797,12.981775],[77.631912,12.981838],[77.632042,12.981915],[77.632154,12.981977],[77.632269,12.982034],[77.632387,12.982086],[77.632507,12.982132],[77.63263,12.982172],[77.632754,12.982207],[77.63288,12.982235],[77.633007,12.982258],[77.633134,12.982274],[77.633148,12.982275],[77.633293,12.982291],[77.633797,12.982343],[77.63385,12.982349],[77.633983,12.982313],[77.6341,12.982325],[77.634105,12.982326],[77.634199,12.982336],[77.63457,12.982375],[77.634815,12.982399],[77.635061,12.982419],[77.635306,12.982437],[77.635777,12.982467],[77.635967,12.98248],[77.636138,12.982493],[77.636309,12.982512],[77.636479,12.982536],[77.636628,12.982576],[77.636776,12.982621],[77.636923,12.98267],[77.636928,12.982676],[77.636985,12.98269],[77.637085,12.982715],[77.637267,12.982768],[77.637447,12.982826],[77.637459,12.98283],[77.637625,12.98289],[77.637642,12.982897],[77.638584,12.983256],[77.638902,12.983376],[77.639881,12.983749],[77.640558,12.984007],[77.640581,12.984015],[77.640856,12.984118],[77.641133,12.984215],[77.64131,12.984275],[77.641411,12.984309],[77.64144,12.984318],[77.642137,12.984547],[77.64226,12.984587],[77.642458,12.984654],[77.64255,12.984688],[77.642655,12.984726],[77.642761,12.984767],[77.64282,12.98479],[77.642848,12.984801],[77.64285,12.984802],[77.642896,12.98482],[77.642956,12.984843],[77.643023,12.984868],[77.643136,12.984906],[77.643152,12.984911],[77.643284,12.984948],[77.643416,12.98498],[77.64355,12.985005],[77.643622,12.985016],[77.643685,12.985025],[77.643821,12.98504],[77.643833,12.98504],[77.643957,12.985048],[77.64426,12.98506],[77.644433,12.985067],[77.644529,12.985074],[77.644572,12.98508],[77.644625,12.985088],[77.64472,12.985107],[77.644813,12.985132],[77.644827,12.985137],[77.644905,12.985164],[77.644938,12.985173],[77.644972,12.985176],[77.645007,12.985172],[77.64504,12.985162],[77.64507,12.985146],[77.645097,12.985124],[77.645109,12.985109],[77.645119,12.985098],[77.645135,12.985068],[77.645145,12.985036],[77.645191,12.984824],[77.645216,12.984704],[77.645259,12.984506],[77.645318,12.984225],[77.645357,12.984044],[77.645417,12.983763],[77.64545,12.98361],[77.645452,12.983599],[77.645477,12.983482],[77.645654,12.983518],[77.645649,12.983541],[77.645639,12.983586],[77.645636,12.983602],[77.645635,12.983609],[77.645633,12.983617],[77.645612,12.983713],[77.645587,12.983834],[77.645505,12.984215],[77.645499,12.984244],[77.645493,12.984272],[77.645475,12.984358],[77.645415,12.98464],[77.645395,12.98473],[77.645368,12.984858],[77.64536,12.984894],[77.645321,12.985076],[77.645307,12.985142],[77.645302,12.98518],[77.645302,12.98519],[77.645302,12.985218],[77.645303,12.985225],[77.645306,12.985243],[77.645307,12.985248],[77.645308,12.985256],[77.64532,12.985293],[77.645325,12.985304],[77.645329,12.985313],[77.645336,12.985327],[77.64534,12.985333],[77.645347,12.985343],[77.645358,12.985359],[77.645381,12.985395],[77.645399,12.985433],[77.645418,12.985475],[77.645443,12.985514],[77.645472,12.98555],[77.64548,12.985558],[77.645508,12.985589],[77.645591,12.985673],[77.645604,12.985686],[77.645678,12.985753],[77.645769,12.985827],[77.645864,12.985897],[77.645926,12.985938],[77.645963,12.985962],[77.646066,12.986022],[77.646171,12.986076],[77.646279,12.986124],[77.646331,12.986146],[77.646584,12.98625],[77.646848,12.98636],[77.647105,12.986467],[77.647553,12.986653],[77.647656,12.986697],[77.647782,12.98675],[77.647843,12.986776],[77.64861,12.98711],[77.648661,12.987132],[77.649203,12.987368],[77.649252,12.98739],[77.649457,12.987481],[77.649547,12.987521],[77.650055,12.987751],[77.650084,12.987765],[77.650187,12.987812],[77.650362,12.987893],[77.650737,12.98807],[77.650931,12.988162],[77.65138,12.988374],[77.651691,12.988521],[77.651751,12.988549],[77.651898,12.988619],[77.651982,12.988658],[77.652262,12.988789],[77.652473,12.988887],[77.652476,12.988889],[77.65249,12.988895],[77.652534,12.988916],[77.652655,12.988972],[77.652712,12.988999],[77.654653,12.989904],[77.654838,12.989992],[77.654918,12.99003],[77.65495,12.990046],[77.657116,12.991103],[77.657719,12.991397],[77.658832,12.99194],[77.659542,12.992287],[77.659642,12.992336],[77.660007,12.992514],[77.660335,12.992674],[77.660766,12.992884],[77.660883,12.992941],[77.661093,12.993042],[77.661157,12.993072],[77.66143,12.9932],[77.661555,12.993258],[77.661611,12.993284],[77.661761,12.993354],[77.662202,12.993556],[77.662244,12.993575],[77.662434,12.993662],[77.662358,12.993823],[77.66226,12.993778],[77.66224,12.993769],[77.662104,12.993707],[77.662028,12.993672],[77.662021,12.993669],[77.661977,12.993648],[77.66193,12.993627],[77.661921,12.993622],[77.66185,12.99359],[77.661823,12.993578],[77.661685,12.993514],[77.661669,12.993507],[77.661655,12.993501],[77.661642,12.993495],[77.661533,12.993444],[77.661489,12.993424],[77.661479,12.993419],[77.661278,12.993325],[77.661156,12.993268],[77.66108,12.993232],[77.660948,12.993169],[77.660803,12.9931],[77.660732,12.993066],[77.660444,12.992925],[77.660341,12.992875],[77.660289,12.992859],[77.660281,12.992856],[77.660219,12.992844],[77.660156,12.99284],[77.660093,12.992842],[77.66003,12.992851],[77.660003,12.992859],[77.659969,12.992867],[77.659911,12.99289],[77.659855,12.992919],[77.659835,12.992933],[77.659803,12.992955],[77.659755,12.992995],[77.659748,12.993003],[77.659733,12.993016],[77.659679,12.993063],[77.659671,12.99307],[77.65962,12.993105],[77.659558,12.993141],[77.659547,12.993145],[77.659492,12.99317],[77.659423,12.993193],[77.659352,12.993209],[77.659343,12.993211],[77.659281,12.993219],[77.659244,12.99322],[77.659238,12.99322],[77.65923,12.99322],[77.659208,12.993221],[77.659136,12.993216],[77.6591,12.99321],[77.659064,12.993204],[77.658994,12.993185],[77.658927,12.99316],[77.658903,12.993148],[77.658901,12.993148],[77.658862,12.993128],[77.658802,12.993091],[77.6588,12.99309],[77.658743,12.993047],[77.658691,12.992998],[77.658644,12.992944],[77.658605,12.99289],[77.658602,12.992885],[77.658566,12.992824],[77.658537,12.992758],[77.65852,12.992707],[77.658515,12.992691],[77.658499,12.992621],[77.658491,12.992551],[77.65849,12.99251],[77.65849,12.99248],[77.658495,12.99242],[77.658496,12.992409],[77.658499,12.992385],[77.658503,12.992323],[77.658501,12.99226],[77.658501,12.992259],[77.658491,12.992199],[77.658474,12.992139],[77.658451,12.992081],[77.65842,12.992026],[77.658384,12.991975],[77.658366,12.991955],[77.658342,12.991929],[77.658295,12.991887],[77.658243,12.991851],[77.658216,12.991838],[77.657808,12.991638],[77.657772,12.991621],[77.65739,12.991434],[77.657276,12.991379],[77.656846,12.991169],[77.656583,12.99104],[77.656578,12.991038],[77.656557,12.991028],[77.656536,12.991018],[77.655785,12.990651],[77.655555,12.990539],[77.654942,12.99024],[77.654919,12.990229],[77.65487,12.990204],[77.654576,12.990064],[77.654116,12.98985],[77.653736,12.989672],[77.653548,12.989585],[77.653245,12.989443],[77.653167,12.989407],[77.652754,12.989214],[77.652678,12.989179],[77.652195,12.988954],[77.651991,12.988858],[77.651904,12.988818],[77.65182,12.988779],[77.651795,12.988767],[77.651582,12.988666],[77.65139,12.988575],[77.651008,12.988395],[77.650746,12.988271],[77.650522,12.988165],[77.650283,12.988053],[77.650218,12.988023],[77.650105,12.98797],[77.650008,12.987926],[77.649382,12.987642],[77.64913,12.98753],[77.648688,12.987338],[77.648418,12.98722],[77.64777,12.986938],[77.64759,12.986862],[77.647483,12.986816],[77.646796,12.986531],[77.646566,12.986436],[77.646209,12.986287],[77.64609,12.986234],[77.645974,12.986174],[77.645862,12.986109],[77.645753,12.986037],[77.645649,12.98596],[77.645549,12.985877],[77.645513,12.98585],[77.645474,12.985827],[77.645437,12.985811],[77.645432,12.985809],[77.645389,12.985796],[77.645344,12.985788],[77.645298,12.985787],[77.645253,12.98579],[77.645208,12.9858],[77.645165,12.985808],[77.645122,12.98581],[77.645078,12.985805],[77.645043,12.985796],[77.645036,12.985794],[77.644996,12.985776],[77.644966,12.985757],[77.644959,12.985753],[77.644926,12.985725],[77.644898,12.985691],[77.644876,12.985654],[77.644859,12.985615],[77.644849,12.985573],[77.644847,12.985544],[77.644846,12.98553],[77.644843,12.985489],[77.644833,12.98545],[77.644818,12.985412],[77.644797,12.985377],[77.644771,12.985346],[77.64474,12.985319],[77.644705,12.985296],[77.644668,12.985279],[77.644628,12.985268],[77.644597,12.985263],[77.644561,12.985257],[77.644493,12.985249],[77.644425,12.985244],[77.644287,12.985239],[77.64403,12.985228],[77.64395,12.985225],[77.64394,12.985224],[77.643806,12.985216],[77.643768,12.985212],[77.643662,12.985201],[77.643519,12.98518],[77.643378,12.985153],[77.643345,12.985145],[77.643317,12.985138],[77.643237,12.985119],[77.643099,12.98508],[77.642962,12.985035],[77.642849,12.984993],[77.642827,12.984984],[77.642781,12.984966],[77.642706,12.984936],[77.64259,12.984891],[77.642397,12.984821],[77.64234,12.984801],[77.642203,12.984755],[77.642052,12.984706],[77.642013,12.984693],[77.641946,12.984671],[77.641682,12.984584],[77.641354,12.984477],[77.641073,12.984383],[77.640945,12.984337],[77.640857,12.984306],[77.640793,12.984284],[77.640516,12.984181],[77.640309,12.984102],[77.639494,12.983792],[77.639029,12.983615],[77.638848,12.983546],[77.638822,12.983536],[77.638772,12.983517],[77.638337,12.983352],[77.638078,12.983253],[77.638033,12.983236],[77.637884,12.983179],[77.63756,12.983056],[77.637387,12.982993],[77.637213,12.982937],[77.637037,12.982886],[77.636884,12.982847],[77.636877,12.982846],[77.636859,12.982841],[77.636851,12.982839],[77.636764,12.982834],[77.636762,12.982834],[77.636482,12.982817],[77.636468,12.982815],[77.636305,12.98279],[77.636252,12.982784],[77.636252,12.982784],[77.636251,12.982784],[77.636127,12.98277],[77.635948,12.982756],[77.635823,12.982748],[77.635658,12.982737],[77.635498,12.982726],[77.635287,12.982713],[77.635102,12.9827],[77.635038,12.982695],[77.635038,12.982695],[77.634789,12.982674],[77.63477,12.982672],[77.63454,12.982649],[77.634444,12.982639],[77.634196,12.982613],[77.634196,12.982613],[77.634195,12.982613],[77.63419,12.982608],[77.634159,12.982605],[77.633977,12.982586],[77.633942,12.982582],[77.63386,12.982528],[77.633817,12.982524],[77.633663,12.982508],[77.633515,12.982492],[77.633286,12.982468],[77.633115,12.98245],[77.632979,12.982433],[77.632979,12.982433],[77.632843,12.982409],[77.632715,12.98238],[77.632709,12.982378],[77.632576,12.982341],[77.632446,12.982298],[77.632317,12.982249],[77.632201,12.982199],[77.632192,12.982194],[77.632069,12.982133],[77.631949,12.982067],[77.63182,12.981991],[77.631819,12.98199],[77.631713,12.981931],[77.631663,12.981907],[77.631603,12.981878],[77.631491,12.981831],[77.631377,12.981791],[77.63126,12.981756],[77.631142,12.981728],[77.63103,12.981708],[77.631022,12.981706],[77.63092,12.981693],[77.630901,12.981691],[77.630536,12.981655],[77.630357,12.981638],[77.630205,12.981626],[77.630191,12.981625],[77.630051,12.98162],[77.629898,12.981621],[77.629745,12.981629],[77.629592,12.981642],[77.629549,12.981648],[77.629441,12.981663],[77.62929,12.981689],[77.62922,12.981703],[77.629197,12.981707],[77.629183,12.98171],[77.629176,12.981712],[77.629156,12.981716],[77.629072,12.981732],[77.628699,12.981806],[77.628402,12.981864],[77.627424,12.982057],[77.627381,12.982121],[77.627298,12.982137],[77.62714,12.982169],[77.627112,12.982179],[77.627055,12.98219],[77.626916,12.982214],[77.62682,12.982226],[77.626777,12.982231],[77.626649,12.982241],[77.626637,12.982242],[77.626497,12.982246],[77.626356,12.982243],[77.626216,12.982234],[77.625988,12.982214],[77.625856,12.982202],[77.62527,12.98215],[77.625247,12.982147],[77.625118,12.982135],[77.624977,12.982121],[77.624747,12.982093],[77.624737,12.982092],[77.624725,12.98209],[77.624685,12.982085],[77.624598,12.982073],[77.624393,12.982044],[77.624159,12.982006],[77.624102,12.981997],[77.623585,12.981907],[77.623465,12.981886],[77.623368,12.981869],[77.623352,12.981866],[77.623315,12.981862],[77.623278,12.981863],[77.623278,12.981863],[77.623275,12.981864],[77.623253,12.981867],[77.623249,12.981868],[77.623242,12.981869],[77.623207,12.98188],[77.623199,12.981882],[77.623181,12.981887],[77.623173,12.98189],[77.623172,12.98189],[77.623153,12.981895],[77.623151,12.981895],[77.623105,12.981901],[77.6231,12.981902],[77.623066,12.981907],[77.623029,12.981918],[77.623021,12.981921],[77.62301,12.981926],[77.622993,12.981934],[77.62296,12.981956],[77.622953,12.981961],[77.622952,12.981963],[77.62293,12.981981],[77.622908,12.982007],[77.622905,12.982011],[77.622905,12.982011],[77.622884,12.982044],[77.622875,12.982065],[77.622872,12.982072],[77.622869,12.982079],[77.62286,12.982111],[77.622858,12.982116],[77.622856,12.982133],[77.622855,12.982143],[77.622854,12.982152],[77.622854,12.982155],[77.622853,12.982156],[77.622852,12.98218],[77.622851,12.982213],[77.62285,12.982227],[77.622849,12.982255],[77.622848,12.982277],[77.622847,12.982299],[77.622846,12.982316],[77.622846,12.982317],[77.622838,12.982444],[77.622835,12.982467],[77.622821,12.982611],[77.622812,12.982679],[77.622799,12.982767],[77.622798,12.982777],[77.622769,12.982942],[77.622743,12.983063],[77.622734,12.983105],[77.622734,12.983108],[77.622658,12.983433],[77.622655,12.983446],[77.622649,12.983471],[77.622621,12.983605],[77.622601,12.983718],[77.622593,12.983765],[77.622588,12.983799],[77.622579,12.983864],[77.622571,12.983926],[77.62256,12.984029],[77.622557,12.984066],[77.622555,12.984087],[77.622549,12.984182],[77.622545,12.984249],[77.622544,12.984275],[77.622544,12.984286],[77.622543,12.984335],[77.622541,12.984412],[77.622543,12.98454],[77.622543,12.984549],[77.622543,12.984557],[77.622543,12.984574],[77.622546,12.984656],[77.622554,12.984912],[77.622559,12.985062],[77.622571,12.985445],[77.622577,12.98564],[77.622592,12.986082],[77.622604,12.98648],[77.622613,12.986746],[77.622622,12.987036],[77.622621,12.9871],[77.622618,12.987123],[77.622613,12.987165],[77.622609,12.98718],[77.622598,12.987228],[77.622577,12.987289],[77.622574,12.987295],[77.622549,12.987348],[77.622516,12.987404],[77.622476,12.987456],[77.622432,12.987504],[77.622382,12.987547],[77.622329,12.987585],[77.622272,12.987617],[77.622211,12.987644],[77.622149,12.987664],[77.622128,12.987668],[77.622084,12.987678],[77.622018,12.987685],[77.621952,12.987686],[77.621886,12.98768],[77.621857,12.987675],[77.621458,12.987618],[77.620323,12.987455],[77.619999,12.987409],[77.619748,12.987373],[77.619711,12.987368],[77.619705,12.987367],[77.619668,12.987364],[77.619666,12.987364],[77.619663,12.987364],[77.619626,12.987365],[77.619603,12.987369],[77.619584,12.987371],[77.619545,12.987379],[77.619542,12.98738],[77.619513,12.987389],[77.619487,12.987403],[77.619465,12.987423],[77.619447,12.987447],[77.619436,12.987474],[77.61943,12.987503],[77.619431,12.987532],[77.61947,12.987794],[77.619471,12.987802],[77.619481,12.987868],[77.619302,12.987893],[77.619296,12.987854],[77.619294,12.987844],[77.619284,12.98777],[77.619282,12.987759],[77.619249,12.987531],[77.619241,12.987503],[77.619228,12.987477],[77.619209,12.987455],[77.619185,12.987437],[77.619158,12.987425],[77.61913,12.987419],[77.6191,12.987419],[77.619071,12.987426],[77.618993,12.987456],[77.618916,12.987492],[77.618843,12.987532],[77.618707,12.987612],[77.618605,12.987672],[77.618464,12.987758],[77.618462,12.987759],[77.618443,12.98777],[77.618285,12.987873],[77.618129,12.987981],[77.618061,12.988031],[77.617977,12.988093],[77.617939,12.988123],[77.617829,12.988209],[77.617684,12.98833],[77.617528,12.988464],[77.61751,12.98848],[77.617399,12.988575],[77.617374,12.988595],[77.617362,12.988605],[77.617265,12.988682],[77.617236,12.988706],[77.617109,12.988804],[77.617002,12.98888],[77.616978,12.988897],[77.616954,12.988913],[77.616861,12.988974],[77.616844,12.988985],[77.616797,12.989013],[77.616748,12.989043],[77.616706,12.989069],[77.616667,12.98909],[77.616565,12.989146],[77.616547,12.989155],[77.616481,12.989189],[77.616421,12.989219],[77.616329,12.989264],[77.616307,12.989274],[77.616285,12.989285],[77.616269,12.989294],[77.61624,12.989309],[77.61624,12.989309],[77.616226,12.989316],[77.616145,12.989358],[77.616145,12.989358],[77.616077,12.989394],[77.616039,12.989414],[77.615974,12.989448],[77.615949,12.989461],[77.615903,12.989486],[77.615851,12.989514],[77.615845,12.989518],[77.615783,12.989551],[77.615783,12.989551],[77.615779,12.989553],[77.615775,12.989555],[77.615741,12.989575],[77.615732,12.98958],[77.615685,12.989607],[77.615594,12.989658],[77.615583,12.989665],[77.615544,12.989689],[77.615538,12.989692],[77.615526,12.989699],[77.615519,12.989704],[77.615464,12.989736],[77.615453,12.989743],[77.615408,12.98977],[77.615361,12.989799],[77.615354,12.989803],[77.61526,12.989862],[77.615234,12.989877],[77.615081,12.989972],[77.614993,12.990026],[77.614969,12.990041],[77.614861,12.990108],[77.614707,12.9902],[77.614671,12.990222],[77.614479,12.990331],[77.614401,12.990374],[77.614314,12.990422],[77.614017,12.990587],[77.61381,12.990701],[77.613548,12.990847],[77.613341,12.990961],[77.613097,12.991096],[77.612913,12.991198],[77.612844,12.991234],[77.612799,12.991257],[77.612774,12.991268],[77.612681,12.99131],[77.612561,12.991357],[77.612454,12.991392],[77.612438,12.991397],[77.612351,12.99142],[77.612313,12.99143],[77.612263,12.991442],[77.612021,12.9915],[77.611886,12.991532],[77.611793,12.991554],[77.611675,12.991585],[77.61167,12.991586],[77.611649,12.991593],[77.611623,12.991601],[77.611609,12.991606],[77.611548,12.991625],[77.611543,12.991626],[77.611444,12.991662],[77.611428,12.991668],[77.61131,12.991718],[77.611237,12.991752],[77.611195,12.991772],[77.611082,12.991832],[77.611073,12.991837],[77.610973,12.991897],[77.610934,12.991923],[77.610877,12.99196],[77.610867,12.991967],[77.610646,12.99212],[77.610573,12.99217],[77.610562,12.992178],[77.610403,12.992288],[77.610377,12.992306],[77.61032,12.992347],[77.610303,12.992358],[77.610302,12.992359],[77.610296,12.992364],[77.610175,12.992465],[77.610101,12.992526],[77.610057,12.992568],[77.610018,12.992613],[77.610008,12.992629],[77.609984,12.992663],[77.609957,12.992716],[77.609935,12.992771],[77.609928,12.992796],[77.609919,12.992829],[77.609911,12.992888],[77.609909,12.992948],[77.60991,12.992967],[77.609913,12.993007],[77.609925,12.993066],[77.609948,12.993157],[77.609986,12.993307],[77.609994,12.993348],[77.609996,12.993361],[77.609999,12.993415],[77.609998,12.993426],[77.609994,12.993469],[77.609983,12.993522],[77.60997,12.993559],[77.609965,12.993573],[77.60994,12.993621],[77.609921,12.993649],[77.609909,12.993666],[77.609894,12.993683],[77.609873,12.993707],[77.609862,12.993715],[77.609843,12.993732],[77.609831,12.993742],[77.609785,12.993772],[77.609736,12.993796],[77.609684,12.993814],[77.609644,12.993822],[77.60963,12.993825],[77.609574,12.993829],[77.609519,12.993826],[77.609465,12.993816],[77.609451,12.993812],[77.609413,12.993799],[77.609363,12.993776],[77.609316,12.993747],[77.609274,12.993712],[77.60926,12.993699],[77.60923,12.993675],[77.609197,12.993655],[77.609183,12.993649],[77.609161,12.993639],[77.609124,12.993629],[77.609085,12.993624],[77.609046,12.993625],[77.609008,12.99363],[77.608971,12.993641],[77.608938,12.993656],[77.608936,12.993657],[77.608904,12.993677],[77.608875,12.993702],[77.608763,12.993809],[77.608731,12.993841],[77.60861,12.993957],[77.608603,12.993964],[77.608543,12.993904],[77.608573,12.993876],[77.608638,12.993813],[77.608774,12.993681],[77.608809,12.993647],[77.608892,12.993567],[77.609034,12.99343],[77.609173,12.993295],[77.609175,12.993293],[77.609161,12.993233],[77.60915,12.993241],[77.609097,12.993279],[77.609097,12.99328],[77.609079,12.993294],[77.609078,12.993295],[77.609058,12.99331],[77.609057,12.993311],[77.609022,12.993338],[77.60902,12.993339],[77.609004,12.993352],[77.608926,12.993404],[77.608872,12.993436],[77.608854,12.993447],[77.608845,12.993452],[77.608836,12.993456],[77.608761,12.993494],[77.608716,12.993513],[77.608684,12.993526],[77.608674,12.993531],[77.608619,12.99355],[77.608584,12.993562],[77.608524,12.993579],[77.608493,12.993588],[77.608401,12.993608],[77.608391,12.993609],[77.608357,12.993614],[77.608338,12.993617],[77.608307,12.993622],[77.608213,12.99363],[77.608212,12.99363],[77.608119,12.993632],[77.608027,12.993633],[77.607791,12.993638],[77.607768,12.993639],[77.607755,12.993639],[77.60762,12.993645],[77.607615,12.993646],[77.607477,12.993659],[77.607339,12.99368],[77.607237,12.9937],[77.607202,12.993707],[77.607192,12.99371],[77.607067,12.993742],[77.606934,12.993784],[77.606808,12.99383],[77.606804,12.993832],[77.60659,12.993917],[77.606502,12.993952],[77.606176,12.994082],[77.60585,12.994212],[77.605705,12.99427],[77.605186,12.994477],[77.605138,12.994496],[77.604685,12.994677],[77.604595,12.994712],[77.604347,12.994808],[77.604276,12.994834],[77.604006,12.994933],[77.603854,12.994985],[77.603663,12.995051],[77.603317,12.995162],[77.60317,12.995207],[77.602985,12.995262],[77.60297,12.995267],[77.60262,12.995365],[77.602269,12.995456],[77.602054,12.995507],[77.601915,12.995541],[77.601845,12.995557],[77.601001,12.99575],[77.600864,12.995781],[77.600784,12.995796],[77.600704,12.995805],[77.600642,12.995807],[77.600623,12.995807],[77.600542,12.995803],[77.600462,12.995793],[77.600383,12.995776],[77.600306,12.995753],[77.60023,12.995725],[77.600134,12.995684],[77.600131,12.995682],[77.600124,12.995679],[77.600117,12.995676],[77.599995,12.995627],[77.599979,12.995621],[77.599944,12.995608],[77.599933,12.995604],[77.599871,12.995582],[77.599844,12.995573],[77.599746,12.995541],[77.599619,12.995505],[77.599515,12.99548],[77.599491,12.995474],[77.599154,12.995397],[77.598977,12.995357],[77.598742,12.995301],[77.59859,12.995259],[77.598509,12.995237],[77.598487,12.995231],[77.598337,12.995185],[77.598277,12.995167],[77.598048,12.995091],[77.597821,12.995008],[77.597691,12.994958],[77.597605,12.994929],[77.59758,12.994923],[77.597542,12.994913],[77.597518,12.994906],[77.597429,12.99489],[77.597339,12.994881],[77.597248,12.994878],[77.597158,12.994882],[77.597068,12.994892],[77.596979,12.99491],[77.596968,12.994913],[77.596892,12.994933],[77.596806,12.994964],[77.596724,12.995],[77.596644,12.995042],[77.596568,12.99509],[77.596496,12.995144],[77.596428,12.995203],[77.596365,12.995266],[77.596307,12.995335],[77.596265,12.995393],[77.596254,12.995407],[77.596207,12.995483],[77.59619,12.995517],[77.596166,12.995562],[77.596132,12.995644],[77.596126,12.995661],[77.596103,12.995728],[77.596092,12.995771],[77.596084,12.995804],[77.596084,12.995806],[77.596119,12.995889],[77.596118,12.995897],[77.596117,12.995906],[77.596051,12.9964],[77.596039,12.99649],[77.595978,12.996954],[77.595976,12.996965],[77.595976,12.99697],[77.595952,12.997125],[77.595924,12.997279],[77.59589,12.997432],[77.595855,12.997568],[77.595851,12.997583],[77.595846,12.997602],[77.595807,12.997734],[77.595726,12.997993],[77.595701,12.998073],[77.595579,12.998463],[77.595537,12.99855],[77.595536,12.998553],[77.595449,12.998736],[77.595435,12.998766],[77.595419,12.998804],[77.595404,12.998851],[77.595397,12.998875],[77.595369,12.998962],[77.595348,12.99903],[77.595345,12.999039],[77.595335,12.999073],[77.595174,12.999587],[77.59499,13.000175],[77.59487,13.000557],[77.594779,13.00085],[77.594237,13.00258],[77.594186,13.002743],[77.593767,13.004084],[77.593738,13.004177],[77.593661,13.004428],[77.593655,13.004448],[77.593577,13.00472],[77.593504,13.004993],[77.593433,13.005264],[77.593428,13.005284],[77.593379,13.005459],[77.593324,13.005634],[77.593263,13.005806],[77.593257,13.005822],[77.593196,13.005976],[77.593124,13.006144],[77.593046,13.00631],[77.592963,13.006473],[77.592942,13.006511],[77.592874,13.006633],[77.592779,13.00679],[77.592543,13.00717],[77.59237,13.007447],[77.59234,13.007496],[77.59234,13.007496],[77.59233,13.007517],[77.592252,13.007693],[77.592192,13.007827],[77.592191,13.00783],[77.59218,13.007848],[77.592125,13.007936],[77.592001,13.008135],[77.591954,13.00821],[77.591948,13.00822],[77.591769,13.008502],[77.591756,13.008523],[77.591756,13.008524],[77.591711,13.008592],[77.591627,13.008721],[77.591553,13.008834],[77.591515,13.008891],[77.591426,13.009024],[77.591346,13.009142],[77.591295,13.009218],[77.591211,13.009341],[77.591167,13.009406],[77.591098,13.009508],[77.591001,13.009649],[77.590961,13.009708],[77.590882,13.009735],[77.590839,13.009798],[77.590796,13.009861],[77.590749,13.00993],[77.590471,13.010338],[77.590305,13.010581],[77.590162,13.010792],[77.589745,13.011403],[77.589702,13.011466],[77.58929,13.012071],[77.589222,13.012169],[77.589137,13.012291],[77.589126,13.012308],[77.588957,13.012542],[77.588838,13.012704],[77.588742,13.012834],[77.588639,13.012969],[77.588567,13.013055],[77.588529,13.0131],[77.588415,13.013227],[77.588403,13.013239],[77.588295,13.013349],[77.58817,13.013466],[77.58806,13.013561],[77.588041,13.013577],[77.587907,13.013684],[77.58778,13.013777],[77.587769,13.013785],[77.587627,13.013881],[77.58748,13.013971],[77.587331,13.014055],[77.58723,13.014106],[77.587177,13.014132],[77.587021,13.014204],[77.586862,13.01427],[77.5867,13.014329],[77.586536,13.014381],[77.586448,13.014406],[77.58637,13.014427],[77.586202,13.014466],[77.586033,13.014499],[77.585863,13.014524],[77.585855,13.014525],[77.585711,13.014541],[77.585691,13.014543],[77.585519,13.014555],[77.585262,13.014568],[77.584834,13.014589],[77.584714,13.014595],[77.584549,13.014603],[77.58454,13.014604],[77.584503,13.014609],[77.584467,13.01462],[77.584433,13.014637],[77.584431,13.014638],[77.584402,13.014659],[77.584376,13.014686],[77.584362,13.014707],[77.584355,13.014717],[77.58433,13.014755],[77.584317,13.014772],[77.584302,13.014791],[77.584269,13.014824],[77.584234,13.014853],[77.584212,13.014867],[77.584195,13.014878],[77.584163,13.0149],[77.584161,13.014902],[77.584132,13.01493],[77.584106,13.014962],[77.584087,13.014998],[77.584073,13.015037],[77.584065,13.015077],[77.584063,13.015117],[77.584063,13.015129],[77.584065,13.015208],[77.584067,13.015299],[77.584069,13.015353],[77.584069,13.015389],[77.584071,13.01548],[77.584072,13.015571],[77.584073,13.015661],[77.584073,13.015752],[77.584073,13.015843],[77.584072,13.015933],[77.584071,13.016024],[77.58407,13.016115],[77.584069,13.016141],[77.584068,13.016186],[77.584068,13.016205],[77.584067,13.016237],[77.584065,13.016296],[77.584063,13.016387],[77.584059,13.016477],[77.584058,13.016509],[77.584056,13.016568],[77.584055,13.016588],[77.584054,13.016615],[77.584052,13.016658],[77.584048,13.016749],[77.584045,13.016803],[77.584044,13.016839],[77.58404,13.016929],[77.584037,13.017019],[77.584035,13.017065],[77.584034,13.0171],[77.584034,13.017108],[77.584032,13.017198],[77.58403,13.017257],[77.58403,13.017288],[77.584028,13.017369],[77.584028,13.017379],[77.584028,13.017407],[77.584026,13.017469],[77.584025,13.017559],[77.584023,13.01765],[77.584022,13.017675],[77.584021,13.01774],[77.584019,13.01783],[77.584017,13.017921],[77.584016,13.017978],[77.584016,13.017983],[77.584016,13.018011],[77.584014,13.018101],[77.584014,13.018106],[77.584012,13.018192],[77.58401,13.018282],[77.58401,13.018312],[77.584009,13.018372],[77.584008,13.018391],[77.584007,13.018463],[77.584005,13.018553],[77.584004,13.018587],[77.584003,13.018643],[77.584002,13.018734],[77.584,13.018824],[77.583998,13.018914],[77.583996,13.019005],[77.583994,13.019095],[77.583993,13.019185],[77.583991,13.019259],[77.583991,13.019275],[77.58399,13.019356],[77.58399,13.019365],[77.58399,13.019406],[77.58399,13.019455],[77.58399,13.019544],[77.583991,13.019566],[77.583992,13.019634],[77.583994,13.019723],[77.583998,13.019813],[77.584,13.019863],[77.584002,13.019903],[77.584003,13.019926],[77.584007,13.019992],[77.584007,13.019995],[77.584013,13.020081],[77.584021,13.02017],[77.58403,13.020259],[77.58404,13.020347],[77.584052,13.020436],[77.584061,13.020499],[77.584065,13.020524],[77.584079,13.020612],[77.584095,13.0207],[77.584112,13.020787],[77.584131,13.020875],[77.584151,13.020962],[77.584172,13.021048],[77.584184,13.021093],[77.584195,13.021135],[77.584219,13.021221],[77.584244,13.021306],[77.584271,13.021392],[77.584287,13.021441],[77.584293,13.021458],[77.584299,13.021477],[77.584328,13.021563],[77.584334,13.021581],[77.584356,13.021651],[77.584382,13.021739],[77.584388,13.021762],[77.584404,13.02183],[77.584405,13.021833],[77.584425,13.021918],[77.584445,13.022006],[77.584466,13.022094],[77.584471,13.022119],[77.584486,13.022183],[77.584507,13.022271],[77.584525,13.022351],[77.584527,13.022359],[77.58453,13.022373],[77.584541,13.022417],[77.584548,13.022448],[77.584567,13.022537],[77.584584,13.022627],[77.5846,13.022718],[77.58461,13.022782],[77.584613,13.022808],[77.584627,13.022897],[77.58464,13.022986],[77.584656,13.023073],[77.58466,13.023094],[77.584663,13.023108],[77.584673,13.02316],[77.584692,13.023247],[77.584709,13.023316],[77.584713,13.023334],[77.584725,13.023377],[77.584769,13.023526],[77.584884,13.023911],[77.584911,13.023999],[77.584919,13.024027],[77.584725,13.024076],[77.584725,13.024076],[77.584706,13.023988],[77.584702,13.023973],[77.584673,13.023844],[77.584659,13.023781],[77.58461,13.023564],[77.58459,13.023476],[77.584576,13.023414],[77.584565,13.02337],[77.584543,13.02328],[77.584523,13.023191],[77.58451,13.023122],[77.584505,13.0231],[77.584489,13.02301],[77.584487,13.022993],[77.584475,13.02292],[77.584475,13.022919],[77.584462,13.02283],[77.584458,13.022804],[77.584449,13.022742],[77.584434,13.022654],[77.584417,13.022567],[77.584398,13.022479],[77.584391,13.02245],[77.584378,13.022392],[77.584357,13.022304],[77.584337,13.022216],[77.584317,13.022128],[77.584296,13.02204],[77.584276,13.021952],[77.584259,13.021881],[77.584256,13.021866],[77.584255,13.021864],[77.584239,13.021798],[77.584234,13.021779],[77.58421,13.021694],[77.584188,13.021627],[77.584182,13.021609],[77.584154,13.021524],[77.584147,13.021504],[77.584125,13.021437],[77.584097,13.021349],[77.584087,13.021315],[77.584071,13.021262],[77.584047,13.021173],[77.584024,13.021085],[77.584002,13.020996],[77.583981,13.020906],[77.583962,13.020817],[77.583944,13.020727],[77.583928,13.020637],[77.583913,13.020547],[77.5839,13.020456],[77.583888,13.020365],[77.583877,13.020274],[77.583868,13.020183],[77.583861,13.020092],[77.583854,13.020001],[77.583851,13.019934],[77.583849,13.01991],[77.583849,13.019906],[77.583847,13.01987],[77.583845,13.019819],[77.583842,13.019728],[77.583839,13.019637],[77.583837,13.019546],[77.583837,13.019455],[77.583837,13.019364],[77.583837,13.019355],[77.583838,13.019273],[77.583838,13.019256],[77.583838,13.019249],[77.58384,13.019182],[77.583841,13.019092],[77.583843,13.019002],[77.583845,13.018911],[77.583847,13.018821],[77.583849,13.018731],[77.58385,13.01864],[77.583852,13.01855],[77.583854,13.01846],[77.583856,13.018369],[77.583857,13.018279],[77.583859,13.018189],[77.583861,13.018098],[77.583862,13.018068],[77.583863,13.018008],[77.583864,13.017918],[77.583866,13.017828],[77.583868,13.017737],[77.583869,13.017684],[77.58387,13.017647],[77.583872,13.017557],[77.583873,13.017466],[77.583875,13.017376],[77.583877,13.017286],[77.583877,13.017254],[77.583879,13.017195],[77.583881,13.017104],[77.583881,13.017095],[77.583884,13.017014],[77.583887,13.016923],[77.583891,13.016832],[77.583892,13.016796],[77.583895,13.016742],[77.583899,13.016652],[77.583901,13.016609],[77.583903,13.016563],[77.583903,13.016562],[77.583905,13.016503],[77.583907,13.016472],[77.58391,13.016382],[77.583912,13.016292],[77.583914,13.016233],[77.583915,13.016202],[77.583915,13.016183],[77.583917,13.016112],[77.583918,13.016022],[77.583919,13.015932],[77.58392,13.015899],[77.58392,13.015842],[77.58392,13.015752],[77.58392,13.015662],[77.583919,13.015572],[77.583918,13.015482],[77.583916,13.015392],[77.583916,13.015356],[77.583914,13.015302],[77.583912,13.015212],[77.58391,13.015121],[77.58391,13.015121],[77.583906,13.01508],[77.5839,13.015059],[77.583896,13.015041],[77.58388,13.015004],[77.583858,13.014969],[77.583831,13.014938],[77.583799,13.014912],[77.583764,13.01489],[77.583757,13.014886],[77.58372,13.014864],[77.583682,13.014836],[77.583679,13.014833],[77.583676,13.014831],[77.583642,13.014798],[77.583609,13.014758],[77.583605,13.014754],[77.583599,13.014746],[77.583584,13.014728],[77.583556,13.014704],[77.583555,13.014703],[77.583522,13.014683],[77.583513,13.01468],[77.583486,13.014669],[77.583448,13.014661],[77.583412,13.01466],[77.583409,13.01466],[77.58336,13.014662],[77.583309,13.014665],[77.583286,13.014666],[77.583229,13.014669],[77.583109,13.014675],[77.582947,13.014684],[77.582848,13.014689],[77.582768,13.014693],[77.582691,13.014697],[77.582579,13.014703],[77.581213,13.014775],[77.580933,13.01479],[77.58007,13.014835],[77.57986,13.014844],[77.579758,13.014849],[77.579587,13.014853],[77.579447,13.014857],[77.579423,13.014857],[77.579135,13.014861],[77.578383,13.014863],[77.578262,13.014863],[77.578247,13.014863],[77.577911,13.014867],[77.577779,13.01487],[77.577772,13.01487],[77.577711,13.014871],[77.577333,13.014879],[77.576865,13.014889],[77.576566,13.014895],[77.576552,13.014895],[77.576539,13.014896],[77.576214,13.0149],[77.576124,13.014901],[77.57612,13.014901],[77.576052,13.014901],[77.576043,13.014901],[77.575701,13.014901],[77.575577,13.014899],[77.575508,13.014898],[77.57538,13.014896],[77.575282,13.014894],[77.574863,13.014881],[77.574479,13.014863],[77.574445,13.014862],[77.574177,13.014846],[77.574027,13.014836],[77.573707,13.014815],[77.573246,13.014815],[77.573199,13.014815],[77.573152,13.01482],[77.573106,13.014832],[77.573063,13.014849],[77.573022,13.014872],[77.572984,13.014899],[77.57295,13.014932],[77.572921,13.014968],[77.572897,13.015007],[77.572886,13.015033],[77.572878,13.01505],[77.572865,13.015094],[77.572864,13.015104],[77.572858,13.01514],[77.572857,13.015186],[77.572877,13.015661],[77.572907,13.016348],[77.572911,13.016431],[77.572917,13.01658],[77.572919,13.016628],[77.572869,13.016631],[77.572864,13.016525],[77.572859,13.016418],[77.572858,13.016379],[77.572853,13.016258],[77.572842,13.016011],[77.572835,13.015842],[77.572825,13.015618],[77.572806,13.015188],[77.572807,13.015137],[77.572815,13.015086],[77.572828,13.015041],[77.572829,13.015037],[77.572849,13.01499],[77.572875,13.014946],[77.572907,13.014905],[77.572943,13.014869],[77.572984,13.014837],[77.573029,13.01481],[77.573055,13.014799],[77.573076,13.01479],[77.573107,13.01478],[77.573126,13.014775],[77.5731,13.014773],[77.573089,13.014772],[77.572844,13.014756],[77.571325,13.014652],[77.570683,13.014608],[77.569523,13.014529],[77.569403,13.014521],[77.56939,13.01452],[77.567585,13.014385],[77.567002,13.014341],[77.566855,13.014333],[77.566838,13.014333],[77.566673,13.01433],[77.566508,13.014334],[77.566343,13.014345],[77.566179,13.014362],[77.566016,13.014386],[77.565854,13.014416],[77.565694,13.014453],[77.565535,13.014496],[77.565378,13.014546],[77.565223,13.014601],[77.56507,13.014663],[77.564921,13.014731],[77.564774,13.014804],[77.564702,13.014844],[77.56463,13.014884],[77.56383,13.015348],[77.562238,13.016271],[77.560095,13.017514],[77.560003,13.017361],[77.560078,13.017318],[77.560143,13.01728],[77.560275,13.017203],[77.560355,13.017157],[77.560541,13.017049],[77.560749,13.016928],[77.560824,13.016885],[77.560874,13.016856],[77.560941,13.016817],[77.561107,13.016721],[77.561119,13.016714],[77.561456,13.016518],[77.561707,13.016373],[77.562108,13.016141],[77.562492,13.015918],[77.564538,13.014731],[77.564688,13.014648],[77.564842,13.014571],[77.564998,13.014501],[77.565157,13.014436],[77.565319,13.014378],[77.565483,13.014326],[77.565649,13.014281],[77.565817,13.014243],[77.565986,13.014211],[77.566156,13.014187],[77.5663,13.014171],[77.566328,13.014168],[77.5665,13.014157],[77.566672,13.014153],[77.566844,13.014155],[77.567016,13.014165],[77.567134,13.014174],[77.568943,13.014309]]]}}]}